<?xml version="1.0" encoding="utf-8" ?>
<kml xmlns="http://www.opengis.net/kml/2.2">
<Document id="root_doc">
<Schema name="larioja" id="larioja">
	<SimpleField name="Codigo" type="string"></SimpleField>
	<SimpleField name="Texto" type="string"></SimpleField>
	<SimpleField name="Texto_Alt" type="string"></SimpleField>
</Schema>
<Folder><name>larioja</name>
  <Placemark>
	<Style><LineStyle><color>ff0000ff</color></LineStyle><PolyStyle><fill>0</fill></PolyStyle></Style>
	<ExtendedData><SchemaData schemaUrl="#larioja">
		<SimpleData name="Codigo">17</SimpleData>
		<SimpleData name="Texto">La Rioja</SimpleData>
		<SimpleData name="Texto_Alt">La Rioja</SimpleData>
	</SchemaData></ExtendedData>
      <Polygon><outerBoundaryIs><LinearRing><coordinates>-2.99722985186489,42.6421396757059 -2.98994750091066,42.6423282987635 -2.98596026025018,42.6363300067869 -2.9805695277223,42.6352214531582 -2.97588431135739,42.639156051079 -2.97039438865257,42.641099936072 -2.95263617860404,42.6385631726396 -2.94645138117911,42.6393168642333 -2.93346614481399,42.634500795672 -2.92584234961014,42.6251750561329 -2.92605227241736,42.6230497952188 -2.91600887308062,42.6195214749099 -2.90443597698827,42.6201607409902 -2.90539367989581,42.6237998422443 -2.9044627099528,42.6264918096106 -2.89275328880193,42.6277061312043 -2.89047630300018,42.6257316450997 -2.89399602086097,42.6213311409522 -2.88214449431696,42.6207250896363 -2.88027730377808,42.6188366528171 -2.88352756029132,42.624428464796 -2.87629521585406,42.6310034572108 -2.86408185779504,42.6332578121408 -2.85959856563803,42.6364859871069 -2.85809424776156,42.6382036936453 -2.85638626294557,42.6374625718059 -2.84289418002906,42.6296028230583 -2.8430803073627,42.6234594528739 -2.84808305302776,42.6171818641121 -2.84443229072993,42.6143203796428 -2.84180124024708,42.6085992152589 -2.83435062765366,42.6091829107909 -2.81990011778751,42.6145014249467 -2.81877136576845,42.6127164711294 -2.82364378475033,42.6014578371953 -2.81899228934454,42.599648252255 -2.81818310220794,42.5971168546543 -2.81947747661601,42.5921403740803 -2.8223505871353,42.5890547781311 -2.84084758155498,42.581193067623 -2.83766892975301,42.5711290056558 -2.82850263108665,42.5636958158942 -2.82499541957122,42.5549443606592 -2.82009710844785,42.5549729597545 -2.81743369256369,42.5576615119712 -2.81760179160786,42.5626420012406 -2.81490291203283,42.5689327421035 -2.81065070519441,42.5689438281461 -2.80348814099009,42.5645997897634 -2.80025349360326,42.5665213867503 -2.79832930855288,42.5737857839372 -2.78937054497165,42.5782454599742 -2.7812266162352,42.5793467967072 -2.77795368804085,42.5813397492348 -2.77898746118496,42.5853403930337 -2.77341760458949,42.5921288371657 -2.77186665606491,42.5962774658682 -2.7725502587248,42.6026549541158 -2.77436826829847,42.6055764841365 -2.76372079864551,42.6228371080162 -2.76043939933803,42.6199753810366 -2.75661429021324,42.6190036516569 -2.74942545208353,42.6237251372471 -2.74077219744558,42.622553029956 -2.73618935668367,42.6191562981256 -2.73057471907126,42.6176211586936 -2.7281657797374,42.6136078298969 -2.72181314557638,42.6082160080637 -2.70972836607896,42.6009991568658 -2.68615813429563,42.5950918937219 -2.68157924791765,42.5956240846649 -2.68054200727653,42.5945179758267 -2.68497864632759,42.5872985696607 -2.68636041782967,42.5815475888794 -2.68707936111111,42.5597102260352 -2.69150482062846,42.5418006397301 -2.70568737921504,42.5171621232386 -2.69971098015624,42.516957375102 -2.6863294016978,42.5198933280263 -2.67933837888183,42.5252143630452 -2.6757805203507,42.525726702061 -2.67734669262436,42.5101149599636 -2.6748939559288,42.508946223694 -2.66579657062114,42.5098476039471 -2.66210236399954,42.5064319818404 -2.65654099738186,42.5040474408764 -2.6498538234225,42.485456532724 -2.64774875001325,42.4832632941624 -2.63952862976763,42.4845238726859 -2.63096604209134,42.4901983798052 -2.63045844365013,42.49373436723 -2.62858529638262,42.4956026502524 -2.61914504658893,42.4950227996234 -2.61017097032535,42.4958734650525 -2.60542515630629,42.5035223098425 -2.59240090521004,42.4925075420953 -2.59376987661757,42.4897115830985 -2.59828104170128,42.4883316278537 -2.60214039190975,42.4822661419919 -2.60159000671156,42.4769868061821 -2.59699306958623,42.472936082139 -2.59289775890214,42.4722551669262 -2.58766893333123,42.4737854537581 -2.58708704870761,42.4753143528578 -2.59164556488824,42.4795905000841 -2.5921900858842,42.4819159440032 -2.58869971778035,42.4835334601608 -2.57804499063829,42.4829723798694 -2.57381074112241,42.4919084898008 -2.56825846635366,42.494148134917 -2.55434804789082,42.4840352961305 -2.53047930144705,42.4835706439333 -2.52969652657644,42.4857288422419 -2.5338974629683,42.4869342198412 -2.53773153009315,42.4900753566552 -2.53735255872251,42.4952431631678 -2.52225880480731,42.5052677330006 -2.51704238407218,42.5109014947373 -2.51360892513992,42.5188210471889 -2.51059234738154,42.5200420069702 -2.507254593163,42.5187488899437 -2.50540241706581,42.5128161227731 -2.51013823822565,42.5049823257074 -2.51651874172002,42.5014971779867 -2.51883282614647,42.4981117276411 -2.51833477859333,42.4932554909516 -2.51472059838883,42.490115229245 -2.47736869109599,42.4865915820206 -2.47412642419892,42.4901522660246 -2.4744047986307,42.491630313183 -2.47256751839755,42.4924966537792 -2.4491823728004,42.4968881417796 -2.43860204323184,42.489435311102 -2.43345975057565,42.490102081024 -2.42406713394982,42.4886655962288 -2.42061289878166,42.4891438617881 -2.41543892164701,42.4903644732594 -2.41205365373654,42.4848429578484 -2.40017237139707,42.4717869578417 -2.39628394092623,42.4734675068508 -2.38830297197218,42.4701931389057 -2.37490524988979,42.4703510371609 -2.37239802138908,42.468512486074 -2.3708874009326,42.4641274247847 -2.3646063858559,42.4617523261898 -2.36083137667283,42.4627152247807 -2.35794143621672,42.4672785278365 -2.35187164560607,42.465663217661 -2.34786588258264,42.456480439855 -2.34839648687831,42.452971190936 -2.34623276515909,42.4515685802049 -2.33520291233411,42.4525451308723 -2.33242249088417,42.4536879207546 -2.33172950891443,42.4578676541738 -2.33684386127037,42.4647791299942 -2.33049055786446,42.4688058298977 -2.32631873407431,42.4683327457903 -2.31772995871082,42.4623329517496 -2.30720930871814,42.4615312296728 -2.29833087698122,42.4572055472359 -2.29355018137968,42.4597163117736 -2.29726550829192,42.4652389291322 -2.29747913036143,42.4680213598742 -2.28799980834438,42.4671803800896 -2.28806644267721,42.462782575841 -2.28595840572581,42.4593832419704 -2.27820889938288,42.454927382859 -2.2760445578261,42.4463997886591 -2.27008047107663,42.4445286237956 -2.26636982259037,42.4490483151918 -2.26348520824559,42.4499720200501 -2.2387295048161,42.4409583299954 -2.23614302424609,42.4375548586077 -2.23532327561669,42.4268053882373 -2.22824692093359,42.425176760803 -2.22074700879731,42.4258283726807 -2.2154577310994,42.4245972628866 -2.21133198639171,42.4217804456588 -2.20973546992607,42.414685177761 -2.20499477989738,42.4153812019854 -2.19890550213332,42.4192022707363 -2.19499924818892,42.4195530947463 -2.19049400929115,42.4178793951335 -2.18627318599551,42.4188862822104 -2.18223537108278,42.4165598420619 -2.18077092762511,42.4121212811133 -2.17702828743666,42.4083023962141 -2.16568660871535,42.4081403160811 -2.15836685999759,42.4104096379422 -2.15700361265499,42.412153541643 -2.15690470904055,42.4162983308652 -2.15218141039577,42.4189330692185 -2.14995598968793,42.4187330926631 -2.14809085808767,42.4159420311966 -2.14559510556473,42.4182013287766 -2.13647455180753,42.4214087160471 -2.12487676699199,42.4188018020979 -2.12200401130723,42.4194839550809 -2.11477716455952,42.4187325806977 -2.1112242287961,42.4196957082455 -2.107050196947,42.4168319936793 -2.10434593915843,42.4164010746898 -2.11060022666044,42.409086442216 -2.11592783277661,42.3994098082211 -2.11194970103305,42.3966806087718 -2.1098815744331,42.3934809868905 -2.08804514774199,42.3841140511888 -2.09281188981223,42.3758214650168 -2.07879077914348,42.3685914179905 -2.07988516521308,42.3657470559766 -2.08669650700598,42.3611550790478 -2.0897704224323,42.3574218547389 -2.08998907686402,42.3465916497807 -2.07008804619803,42.3428912926259 -2.06183569440003,42.3479005171873 -2.05648764981449,42.3491624220789 -2.04978897741954,42.3527701747946 -2.04510485610089,42.356901543237 -2.04536837778788,42.359069709081 -2.02761413469962,42.3630950891505 -2.02090773679322,42.3683153921585 -2.01217130085487,42.368589361855 -2.00912735592141,42.3628082776478 -2.00634840860682,42.360612069903 -1.99798286009989,42.3638781209041 -1.99570790988051,42.3637011569505 -1.99079545118974,42.3593570998841 -1.98172508630753,42.3558049761052 -1.98013942688039,42.3542779098732 -1.98086009223222,42.3523243959591 -1.97937963540634,42.3499770130661 -1.97741280732941,42.3497399439264 -1.97292881538472,42.3536077866981 -1.96943536156788,42.3522835261465 -1.96775910165446,42.3503817011563 -1.96988613438087,42.3471885466359 -1.96454724542468,42.3426509041282 -1.96883444074514,42.3381821189378 -1.96517659702792,42.3339410666494 -1.96204244237529,42.3336802896379 -1.95516428658655,42.3358095546541 -1.94765884442139,42.3346820809601 -1.94206842718572,42.3350803239442 -1.93407925391821,42.3230919346712 -1.93061925426081,42.3207924479462 -1.92724502934011,42.3227405189965 -1.92639926100854,42.3275096990076 -1.92018575702041,42.3277417381778 -1.91652955272855,42.3263248186987 -1.91656357821659,42.3228865518394 -1.91978967184533,42.3188018381748 -1.91960193832401,42.3164799131329 -1.9068184563851,42.3087896721035 -1.90795523215632,42.3056776800824 -1.91328343565215,42.3029224241953 -1.91522591489333,42.3005942046551 -1.89587199416798,42.2923579510706 -1.89413377385609,42.2906182307969 -1.8838008349269,42.2872629321999 -1.87605150824698,42.2870683950045 -1.87273669789912,42.2902825259033 -1.87140676278224,42.2895298158959 -1.86763290703598,42.2836572508959 -1.86916517599251,42.2791946928 -1.86633068314898,42.2760173748687 -1.86883483222489,42.2661974390996 -1.87637869623305,42.2589632396908 -1.87518141174088,42.2550912706407 -1.87243163272357,42.2526771168955 -1.86634124374348,42.2507932836901 -1.85530824591669,42.2501826548717 -1.85343599157456,42.2524891687058 -1.85420322020083,42.257393879698 -1.85032433432992,42.2591095341628 -1.84716624676141,42.2578552441783 -1.84085888230085,42.2509577206993 -1.83531198933901,42.2489139591757 -1.82939468235792,42.2442845469952 -1.82498627915283,42.2455376658262 -1.82399894621397,42.2484460711388 -1.8192190923339,42.2486389487821 -1.81829750709058,42.246062714127 -1.82135174222567,42.2323520669843 -1.81686480111193,42.2282193598199 -1.80620034880863,42.2276831236403 -1.80333599955829,42.2238922060333 -1.80044229066951,42.2227316807836 -1.79023069616888,42.2229311257302 -1.78782015513883,42.2251065681673 -1.78031069211448,42.2243522742243 -1.77422126163678,42.2153490330963 -1.77140922308206,42.2141267521929 -1.76945285858163,42.2140365231021 -1.76707058034703,42.2157046419859 -1.76619162106233,42.2216588951021 -1.74089156192685,42.2123352618568 -1.73954828143809,42.2142879740968 -1.73648693793417,42.2153012342291 -1.72728998515708,42.2123625669922 -1.72593984423453,42.2142861511046 -1.72190404064968,42.2119942131409 -1.71886805568795,42.2121286089917 -1.70740164409276,42.2087019787352 -1.70596423273865,42.2065349887266 -1.70677029373803,42.2025808360348 -1.70333475520591,42.1955155889069 -1.70445911356496,42.1920238150483 -1.70322379260707,42.1909144437698 -1.70052188660789,42.1904561020997 -1.69770901890816,42.1931879028642 -1.68981140103608,42.1919231569917 -1.68631314482571,42.1939545480832 -1.6818838018914,42.1928426789347 -1.67973588782624,42.1888316277327 -1.69712390034958,42.1803757146482 -1.7005537426645,42.1730262467962 -1.69937300244489,42.1675793517133 -1.69347557607939,42.1584420009599 -1.68565053489573,42.1560779329298 -1.67928373340442,42.1518259208324 -1.69034074230044,42.1480975677779 -1.70848742160699,42.1364530428479 -1.71969954080648,42.1330641450014 -1.72523613278701,42.1412635030457 -1.7355627565598,42.1481139099684 -1.74063001024534,42.1501718500086 -1.74908642424163,42.1505076046678 -1.764610366075,42.1500708409454 -1.7690814564156,42.1454824326202 -1.77992228394187,42.1415748008003 -1.78056391102344,42.1405780136656 -1.77848215159074,42.1375303399255 -1.78202572062064,42.1374751540632 -1.79797057796188,42.1409076211663 -1.80197344302017,42.1465738859219 -1.82163567812742,42.1537546041213 -1.83216748609427,42.1485346641385 -1.83809181969747,42.1421329067119 -1.83719127120155,42.134442622166 -1.83871716032295,42.1294556917624 -1.85964771959338,42.1149422549365 -1.86382197602133,42.1072799582508 -1.86792307365253,42.1065470877248 -1.87463125201983,42.0992459836732 -1.89267382017826,42.085797904754 -1.90213126462487,42.0740618320792 -1.90248336738534,42.0710413338888 -1.90559253539836,42.0677769906086 -1.90564863878108,42.0613982128871 -1.90879289229418,42.0586941720867 -1.90734277067709,42.0562672028392 -1.9034310936033,42.0544190556543 -1.90582763798294,42.0490161266976 -1.9030208159451,42.0384327350131 -1.90395306419075,42.0355539591028 -1.90233107060527,42.0292948048229 -1.89947533799521,42.029664273001 -1.89528373420077,42.0263434169803 -1.88653387383889,42.027453299205 -1.88336632341722,42.0268320462629 -1.88334243811214,42.0236277931895 -1.88062257928201,42.0222030361245 -1.87271592076491,42.0130944541609 -1.86965640443427,42.0123010608042 -1.86459164537024,42.0151010076779 -1.86126284555846,42.0113388232559 -1.86201486031708,42.0102261126718 -1.86034365702036,42.0094338309341 -1.85988152680733,42.006067616015 -1.85486926798343,42.0025057520147 -1.8494863579851,42.0049990301578 -1.84718320605568,42.0078417959415 -1.84703322603077,42.0025032547024 -1.85132752882176,41.9980712967833 -1.84739182361076,41.990700018717 -1.84466818736487,41.9890964886863 -1.84404794288197,41.9873340051935 -1.85419494222549,41.981618146605 -1.86519058540783,41.9776013002319 -1.85654365221454,41.9664009690996 -1.87759433510305,41.9524347691066 -1.89070550628788,41.9477972351956 -1.9066673938903,41.9455891696758 -1.9046684007363,41.9433284157937 -1.90887630266492,41.9406394977038 -1.91120452837051,41.940634625852 -1.91517081672537,41.9322510467656 -1.91755506496538,41.9339127689366 -1.92149333756141,41.9342650391246 -1.92952131984584,41.9295396759566 -1.93264262230171,41.9304153918401 -1.93532950577441,41.9269547997995 -1.94056462224724,41.9254540969438 -1.95485989065588,41.9274405812074 -1.96134383335861,41.9203031049917 -1.97029859494523,41.919140911955 -1.98144299913859,41.9190332070487 -1.98411553112629,41.9200836516609 -1.99834803604265,41.930710483168 -1.998663645643,41.9344330012673 -2.00133814224623,41.9385092882543 -2.00465536367229,41.9400601957613 -2.01307599238087,41.9408084299887 -2.01609005755139,41.9448422850999 -2.01955799921416,41.9444756370625 -2.02095284659349,41.9479280921639 -2.02831370671028,41.9533856168221 -2.02989933200144,41.95305678463 -2.02973514601861,41.9503624516833 -2.03135285104687,41.9495024737166 -2.03065087873779,41.94805550803 -2.03474455987806,41.9462076687516 -2.03350157898569,41.9438374296305 -2.03610013021819,41.943517058672 -2.03639135594844,41.9394034600086 -2.03740983437654,41.9414655361503 -2.04410495123964,41.9455024579237 -2.04664197595998,41.9509275151622 -2.05213252479061,41.9508649649309 -2.05457957515042,41.9526504360655 -2.06223902358952,41.9544335630817 -2.06325245258742,41.9536222891972 -2.06761618167512,41.953901033901 -2.06956888015089,41.9523767278753 -2.07621444863786,41.9508813606135 -2.0783676852211,41.951330977878 -2.08012190632473,41.9543532686906 -2.08622662792525,41.9543930601587 -2.09112195933683,41.9563323562258 -2.09264403421149,41.9553626988673 -2.09593509310325,41.9564244496365 -2.10043998525128,41.9552710267963 -2.10996017881711,41.9578671230377 -2.1160955527317,41.9635707628486 -2.11502677403757,41.9649314911932 -2.11629138007374,41.9747044138972 -2.11930626720278,41.976637037992 -2.11989941400511,41.9861435217169 -2.12407118569292,41.995308112998 -2.11942277510189,41.997064837888 -2.11210657832269,41.9970174009023 -2.10763110600023,42.0027738570487 -2.11523867134175,42.0114520249346 -2.1170074541362,42.0215079967915 -2.11967879495787,42.0222400570983 -2.12069390739856,42.0239500582442 -2.12890132905929,42.0261833477319 -2.14489300120325,42.0415968211081 -2.15056415991498,42.0421613619858 -2.14992167584068,42.0450296898976 -2.15476455821605,42.0470379506407 -2.15678215907284,42.0534473909015 -2.1589980351808,42.0558594239054 -2.15837182229118,42.059340343831 -2.16112139828924,42.0625487700515 -2.16191224631933,42.0667335248195 -2.1520348403757,42.0687053171445 -2.14633321080949,42.0729320347316 -2.14261845163254,42.0740931957147 -2.13540633366219,42.0746333698225 -2.12723890589622,42.0804616376361 -2.12682031433,42.0880508720287 -2.12867828815404,42.0909920551864 -2.12732381825015,42.097169135622 -2.13674845891749,42.1030857229331 -2.13863349269282,42.1023163488356 -2.14811076924593,42.1044496992525 -2.149256331439,42.1038007562594 -2.15888051218542,42.1049255472372 -2.1659910262056,42.1040859459555 -2.17277261489793,42.105269958677 -2.18255361544188,42.1036649278006 -2.18615977458917,42.1044471906163 -2.18876442807738,42.103159701258 -2.19687682504907,42.1024243410359 -2.20888260220881,42.1046604410077 -2.21709507419804,42.0997273216039 -2.22408018340452,42.0981536987918 -2.23131690173891,42.1017420091684 -2.23784191361984,42.102217954123 -2.25277012868946,42.0915806098284 -2.25406053973045,42.0918772262485 -2.25889052409498,42.0872792441995 -2.26958868837433,42.0885548816512 -2.27161941092244,42.0938816117183 -2.28174600144104,42.1083918138823 -2.28061415562408,42.114346954136 -2.28257145257583,42.1188264040273 -2.27891345614503,42.1224329767869 -2.28215970617213,42.1317029782244 -2.28839043176254,42.1349931047822 -2.30782671991457,42.1402457726685 -2.31820498244321,42.1451804528465 -2.32688615402523,42.1436736868734 -2.33214994562022,42.1460281589593 -2.34400362003606,42.1455022236256 -2.34819081130578,42.146705943895 -2.35105354897848,42.1448849237192 -2.37067342582515,42.1434362561504 -2.37617591865584,42.1413768548814 -2.38786734655152,42.1424846360139 -2.39294557495498,42.140422197003 -2.39721409070738,42.1369502428152 -2.40140037557698,42.1395750479706 -2.4091188873477,42.1384892939353 -2.41763314206843,42.1390192782372 -2.42696787574892,42.1358060189641 -2.4384624701895,42.1372678481036 -2.44126457517377,42.1364890319842 -2.44649290217966,42.1322273587085 -2.44873436140867,42.1277079319403 -2.44853587684998,42.1240954177803 -2.45354472926235,42.121264359124 -2.45861604512961,42.1153171762285 -2.47177334839759,42.1143068028851 -2.47441301821556,42.1110676420507 -2.4782052813403,42.1103014016926 -2.48436987655274,42.1063483992004 -2.48910263176254,42.1088914706546 -2.49034402443346,42.1109504660733 -2.49590428432671,42.1129474821479 -2.50110971776766,42.1124208522536 -2.50851327660653,42.1154430002267 -2.51467729420224,42.1145415906844 -2.51648363825364,42.110847569138 -2.51624365961372,42.1026596447314 -2.51938708218517,42.0980075627182 -2.51825686591214,42.0907706020007 -2.52155813864866,42.0875420617893 -2.52265719685605,42.0828812829848 -2.51940728170259,42.0809673497029 -2.51474378031305,42.0742197909945 -2.51488135280723,42.0688614968829 -2.53250893523703,42.0552267861637 -2.53539306089836,42.0541487577713 -2.53953212133348,42.0549850720591 -2.54443315794541,42.0540679661359 -2.54906775783735,42.0515103856767 -2.5520338188357,42.0456047471213 -2.5512839744068,42.0388558459864 -2.55525523224175,42.0359351710053 -2.55868895887198,42.0303373510603 -2.56530023956289,42.0139525131458 -2.56994066143617,42.0117634127784 -2.57525233772744,42.0066584418768 -2.57990984915067,41.9962639321972 -2.59660844242262,42.0019440658865 -2.60732823903231,42.0024046591847 -2.6151083770282,42.005781529921 -2.62447224397163,42.0049209168958 -2.62663652983284,42.0065041717986 -2.64250706056748,42.0038888668132 -2.65001845766461,42.0037949769192 -2.65979124131865,42.0053645729702 -2.66186933921822,42.0028848617147 -2.66590588391316,42.0022392379697 -2.67358303904482,41.9980643090286 -2.68717442891927,42.0014166902427 -2.68786667516881,42.0030487886175 -2.69435358141369,42.0075606406313 -2.69627077487618,42.0107000700931 -2.70513870440913,42.0151365310927 -2.71024189429936,42.0137355099552 -2.72030527037139,42.0157960890095 -2.72388131709205,42.0155525857212 -2.73760995067735,42.0106222488393 -2.74616812493068,42.0086780809316 -2.74696280068215,42.0092742377503 -2.74878724578653,42.0151416421913 -2.75574629037506,42.0239292136135 -2.75490298432561,42.0296016132571 -2.75737802798637,42.0331014908767 -2.75202542534903,42.0363864116049 -2.74610051143415,42.0436147261844 -2.7384871995697,42.0497130331966 -2.73460126012718,42.0600076239245 -2.72734991901656,42.0655566619859 -2.72554799198142,42.0713435190078 -2.72193812818182,42.0730640921786 -2.70842260732133,42.0862880548261 -2.70911153609249,42.0889737962034 -2.70760529582134,42.0904739717396 -2.71043202901744,42.0963534420293 -2.70882475612459,42.1013750157432 -2.70626956118096,42.1020979537969 -2.70594831734718,42.1035561719154 -2.70745911656837,42.1063881376216 -2.71482057586148,42.110036326607 -2.72268120380508,42.115891818053 -2.72711847976169,42.1220089408962 -2.73466727013086,42.1249537672629 -2.74639463063799,42.1239446822317 -2.75117363561012,42.1177677788937 -2.76632832584436,42.1250949848235 -2.77485115408618,42.1235360262251 -2.78214253400728,42.1141384209775 -2.7873144432201,42.1121487268509 -2.79160761593042,42.1087522236217 -2.79333675427475,42.1015321201793 -2.7902053799079,42.0976175762575 -2.79014406539819,42.0942220209539 -2.80334377723238,42.0804835558318 -2.80321815772133,42.0781326371842 -2.79901766958881,42.0760177487737 -2.79682865490448,42.0725463277651 -2.79494784321094,42.0635454341134 -2.79838196509988,42.0593094491129 -2.79798683393566,42.0468435492002 -2.80495001796102,42.0458739579719 -2.80768357879416,42.0410150681384 -2.81263838855903,42.0366371048542 -2.8151514767703,42.0365961197895 -2.82083207318241,42.0400907840483 -2.82525210777378,42.0408452140588 -2.83370485574535,42.0381648009686 -2.83966996387929,42.0347508731213 -2.84463610678978,42.0344695418586 -2.85421150362642,42.0304620237968 -2.85710582786116,42.0283793171868 -2.85830246197302,42.0226886328022 -2.8623444172209,42.0192440179538 -2.86790349493127,42.0178185099511 -2.86952790767975,42.0149742778598 -2.87286477076957,42.0132397598975 -2.88382588361065,42.0094866532277 -2.88951227235972,42.0104019950586 -2.89124746265413,42.0126463240427 -2.89173458759163,42.017276260812 -2.90285274660568,42.0209340268616 -2.90909691278938,42.0213084847251 -2.91362436163423,42.0228521890181 -2.9154837691695,42.032310673796 -2.91523297122025,42.0390294868962 -2.92042734460338,42.0492108236688 -2.91980849161087,42.0512098651425 -2.92344967966438,42.0579223680253 -2.92292589537844,42.0611824160716 -2.92692018871223,42.0665169718894 -2.9263731775863,42.0691645839605 -2.92801140283059,42.0740742619121 -2.93194658432373,42.0792554991378 -2.93117659427633,42.086775563109 -2.93533317365609,42.0894079600377 -2.94151230810146,42.0891321606511 -2.95400559108442,42.0855803908465 -2.95864828928862,42.085906451092 -2.96087408818724,42.0842860841733 -2.97943328285544,42.084128993016 -2.99108796157118,42.0875800740172 -2.99785914058606,42.0865357291207 -3.00390460481884,42.0833293946172 -3.00958727813586,42.0849863430416 -3.01467818176795,42.0884263656844 -3.02345678462567,42.0892715861022 -3.03437372191438,42.0859633618939 -3.05253599507601,42.1187133436645 -3.05895480722568,42.1269691122017 -3.06617202223697,42.1333237290605 -3.0736525972384,42.1358499676438 -3.08381376031896,42.133456269002 -3.08567821728444,42.1342204180833 -3.09067140756982,42.1485908427181 -3.08909741366495,42.1569770007435 -3.08981483789521,42.1593451451478 -3.09980164516572,42.1673885827487 -3.09657234095815,42.169453799743 -3.10146394256465,42.1697377837949 -3.10173358806687,42.1718360070099 -3.10544032618668,42.1730125128301 -3.10910233539182,42.176269381989 -3.1133523072218,42.1763373306036 -3.11496709542041,42.1788034150723 -3.11426338397289,42.1848293340471 -3.11532307261463,42.1882686900367 -3.12511798357073,42.193238937717 -3.12936754487066,42.1984939046134 -3.12794443559417,42.2015936448464 -3.11875605633811,42.2045035428829 -3.11335015036683,42.2095164126873 -3.10601240480065,42.2117659951004 -3.10378639120468,42.2136863166302 -3.09916163505163,42.2237143986158 -3.10206085420635,42.2333575047146 -3.09392817686881,42.2411547810215 -3.09234542888155,42.2447315209108 -3.08858931396383,42.2457251206889 -3.09771883021257,42.2630906639091 -3.08962124466332,42.273049007016 -3.09616648660435,42.2790238611167 -3.09585171423385,42.2874539167521 -3.0993801861771,42.2944397579652 -3.10103003023129,42.3021566217841 -3.10357177200519,42.3059009431885 -3.10261812678783,42.3089458497169 -3.10620105460359,42.3110410646289 -3.10666473800373,42.3125986541877 -3.10338965744596,42.320779250906 -3.10069806500459,42.3224117301593 -3.09806438964448,42.3223149071325 -3.09577386263808,42.3244602796446 -3.09586255510272,42.3269099010031 -3.10067131766695,42.3285719598384 -3.10392878136373,42.3313789638988 -3.10564636108528,42.3350339392568 -3.1106900465711,42.3385776412022 -3.11077092459109,42.3432067488885 -3.10899262055295,42.3468378817071 -3.11019676907215,42.3481156137324 -3.10966833061466,42.3514483841484 -3.07733691520532,42.3531855576179 -3.06694522825316,42.3550382897366 -3.06346207990923,42.356697392006 -3.06328601370678,42.3628486182382 -3.07367945417042,42.3717585240195 -3.08481090106412,42.3853861371297 -3.09490368079203,42.3837392690177 -3.10439402873085,42.3854062650117 -3.10527022839101,42.3863690821878 -3.09699155236193,42.3986066208382 -3.09573783660195,42.405182072807 -3.09889045343028,42.4085026341979 -3.10134634860241,42.4167771161962 -3.09431032019064,42.4176656031919 -3.09054565959968,42.4199111378905 -3.09035470202478,42.4223699231814 -3.07817893127397,42.4157503039227 -3.0789202632672,42.4059241720645 -3.08265200778956,42.3973838209691 -3.07868350957916,42.3914065079431 -3.07501459861763,42.3916431166746 -3.07351328021588,42.3856460447515 -3.0678582750096,42.3800206822325 -3.06575111840719,42.3744651139942 -3.06025749644001,42.3707755971139 -3.05688066909988,42.3702729492014 -3.05314253665755,42.3734178351784 -3.05600709611363,42.3851424137451 -3.05918523138429,42.3931112251518 -3.06103346028409,42.3946052736213 -3.06401992471754,42.4042761911512 -3.05892133869313,42.4099077079303 -3.05739659402538,42.4171582918101 -3.06329924858592,42.4249094376439 -3.0576913887623,42.4339093769484 -3.04600384877511,42.4451540048697 -3.05027697737653,42.45159159796 -3.06098868465705,42.4619884959292 -3.06420878921777,42.4709477189796 -3.07331450729804,42.4764809999565 -3.08230257302548,42.4744846706104 -3.08277888584032,42.4759433296819 -3.08930392197573,42.478874445073 -3.09042181156639,42.4778829420165 -3.09143155208174,42.4862666947399 -3.0939867865512,42.4863006832041 -3.09469519439098,42.4880742920598 -3.09325228265243,42.4915247450327 -3.07929197086043,42.49909107583 -3.07513923806669,42.5070910628243 -3.0739806368273,42.5156654840924 -3.07644589783453,42.5208243138619 -3.07293218880469,42.5249602946103 -3.07177863340227,42.5276717237824 -3.07257143886133,42.5289231288259 -3.07647181423051,42.5322258269948 -3.08128025429961,42.5311778637202 -3.08406999936388,42.5321845567078 -3.08269603422166,42.5337075290715 -3.08361104200038,42.5350217388838 -3.08930243167069,42.5382776517196 -3.09678618760651,42.5345792381172 -3.09991819798055,42.5361706328195 -3.10745569023837,42.5287700720087 -3.11739782518809,42.5322637126243 -3.12532658136287,42.5331109428108 -3.13102168736346,42.5372113901329 -3.13427128181837,42.5420528499918 -3.12633428090589,42.5438088587216 -3.11491183465738,42.5512776560595 -3.10543987074085,42.5539253418375 -3.10374535436587,42.5531073778243 -3.10423868486538,42.5567903250143 -3.10242784115277,42.5594306916799 -3.08828295970584,42.5671062670302 -3.08235843386313,42.5740181132066 -3.08619564958303,42.5822106707713 -3.07931208503795,42.5836744769821 -3.06810584890528,42.5889139670889 -3.05983062689847,42.5891886968022 -3.06353777375167,42.5913120942407 -3.06518610234798,42.5941750198986 -3.06461739421297,42.5982820437854 -3.06040199314836,42.6005987311558 -3.06041596823924,42.6025620421853 -3.06563807531013,42.6070441066924 -3.0704572385688,42.6214145822183 -3.07819122382029,42.6237331121564 -3.07952337418267,42.6260917116942 -3.08640351165492,42.6277168571512 -3.08106653880529,42.6313140529353 -3.08474297136065,42.6353460540955 -3.08415228863715,42.6406868512197 -3.0693541900449,42.638778378744 -3.0649762082869,42.6396814700931 -3.04078829760916,42.6400526166158 -3.0340419138928,42.6380374732366 -3.02943132866339,42.6382097509199 -3.01801299759719,42.632178167984 -3.01630587426553,42.63352924873 -3.01717208376136,42.6347809709179 -3.01450211736215,42.6403738440267 -3.01073323918088,42.6416530720047 -3.00872042993782,42.6408516900589 -3.00475624274247,42.64426506323 -2.99722985186489,42.6421396757059</coordinates></LinearRing></outerBoundaryIs><innerBoundaryIs><LinearRing><coordinates>-2.99937831210574,42.6009472649747 -2.99194180755383,42.6045582250123 -2.9862480580093,42.6070522298572 -2.98577190958625,42.6098529481321 -2.98285774426186,42.6107981720364 -2.98645345869736,42.6147521817762 -2.99452498142526,42.6154914367586 -2.99408666375373,42.610448146929 -2.997866542704,42.605432097022 -2.99937831210574,42.6009472649747</coordinates></LinearRing></innerBoundaryIs><innerBoundaryIs><LinearRing><coordinates>-2.94521483222426,42.6038874271948 -2.94312305388121,42.5985189430213 -2.93960435111668,42.5944554487048 -2.93488727510192,42.5944077632261 -2.9276571468084,42.5961414687896 -2.92262931838403,42.6008301901715 -2.92955925755728,42.6062472207905 -2.92973640443303,42.6112185557846 -2.93450047760854,42.6140762446145 -2.94026207331317,42.6072800701169 -2.94521483222426,42.6038874271948</coordinates></LinearRing></innerBoundaryIs></Polygon>
  </Placemark>
</Folder>
</Document></kml>
