<?xml version="1.0" encoding="utf-8" ?>
<kml xmlns="http://www.opengis.net/kml/2.2">
<Document id="root_doc">
<Schema name="madrid" id="madrid">
	<SimpleField name="Codigo" type="string"></SimpleField>
	<SimpleField name="Texto" type="string"></SimpleField>
	<SimpleField name="Texto_Alt" type="string"></SimpleField>
</Schema>
<Folder><name>madrid</name>
  <Placemark>
	<Style><LineStyle><color>ff0000ff</color></LineStyle><PolyStyle><fill>0</fill></PolyStyle></Style>
	<ExtendedData><SchemaData schemaUrl="#madrid">
		<SimpleData name="Codigo">13</SimpleData>
		<SimpleData name="Texto">Comunidad de Madrid</SimpleData>
		<SimpleData name="Texto_Alt">Madrid</SimpleData>
	</SchemaData></ExtendedData>
      <MultiGeometry><Polygon><outerBoundaryIs><LinearRing><coordinates>-4.25410736543368,40.658665228842 -4.25604644904306,40.6514010808867 -4.26736778810971,40.6531611497848 -4.28154358417884,40.653156610846 -4.30192473561811,40.6512453528378 -4.31995066787583,40.6477653590074 -4.32341049685324,40.6522442097343 -4.32477257997924,40.6577237386334 -4.31860522334555,40.6617039532159 -4.31740680877277,40.6669335270847 -4.29429772175065,40.6765275431597 -4.28812451528783,40.6831718301151 -4.28440127870953,40.6822164829888 -4.27489246140852,40.6764595557922 -4.2674081413306,40.6745427471765 -4.25985224438925,40.6657481421594 -4.25446103665266,40.6620688879427 -4.25410736543368,40.658665228842</coordinates></LinearRing></outerBoundaryIs></Polygon><Polygon><outerBoundaryIs><LinearRing><coordinates>-3.53670643742999,41.1605761031927 -3.53762676233683,41.1553327710871 -3.54109971390393,41.1496667326113 -3.53345688160267,41.1471421576952 -3.53009969682453,41.1416266422488 -3.52618336018935,41.1391493357172 -3.51652794142723,41.1388028188973 -3.51557433304074,41.1375360471584 -3.50926354869384,41.1363947641997 -3.50561149461868,41.1303195179919 -3.50172412415983,41.1267341158234 -3.49975799317557,41.1200739916092 -3.49536873935741,41.1159896770886 -3.49409499386158,41.1135458257333 -3.49542840096706,41.1118763241605 -3.4930074951752,41.11130654964 -3.49401151791382,41.1098753656506 -3.4928481268573,41.1070311171657 -3.48963082324366,41.1055142647201 -3.48946732896359,41.1016207607591 -3.49082216088863,41.0996512605999 -3.49048545525212,41.0972799662065 -3.4882124939028,41.0965077098347 -3.48867918396429,41.0942419859871 -3.4834256044174,41.0929443421561 -3.4746124451673,41.0951894992139 -3.47448941370263,41.0932849309019 -3.45654508440537,41.0870568718989 -3.45553536005972,41.0841070657593 -3.44894544130623,41.0818033622564 -3.44838993840593,41.0806362449791 -3.4453988000381,41.0810756871731 -3.44423644923075,41.0824349462353 -3.43970100088829,41.0810695401638 -3.43550130686644,41.0840220420952 -3.43032088431964,41.0836053988212 -3.42949056162106,41.0844462526814 -3.42586463055432,41.0834237017914 -3.42773717325567,41.0808116929861 -3.42672877841664,41.0763743958126 -3.4253069411546,41.07611479798 -3.42635913515193,41.0718500916651 -3.42514615260021,41.0716563562132 -3.42705606701401,41.0689892197341 -3.42600625175555,41.0656618936556 -3.43108872829187,41.0624037546024 -3.43127642408402,41.0583394766688 -3.43561477756154,41.0537110621483 -3.43473008792365,41.0494598650641 -3.43827854199203,41.0467800726128 -3.43893548624755,41.0426689681658 -3.43117855802367,41.0416694101926 -3.42203387192477,41.0259928780535 -3.41291253303999,41.018711101666 -3.40799776028907,41.0163413690817 -3.39751985483255,41.00683812084 -3.39445086037735,41.0002771516412 -3.40051135701805,40.9957387200024 -3.41829661803471,40.9875629777057 -3.41630181013163,40.9843479272247 -3.4184858032336,40.9794900419236 -3.41684846103319,40.9769528482486 -3.42155371881211,40.9673240466952 -3.42800546499674,40.9598829428344 -3.43201712815491,40.9494598569211 -3.43603970135215,40.9461279497066 -3.43674510792061,40.9397590731744 -3.43541797195416,40.9375624469862 -3.4370329721551,40.9334972396463 -3.44885511660278,40.922526650877 -3.44838287764777,40.9187170526278 -3.45128716419905,40.9128647648483 -3.44557266716469,40.9103276401439 -3.44406275458067,40.9068490037535 -3.4505273520637,40.9053511559746 -3.45838856660723,40.9084326479458 -3.46057772681865,40.9066583180526 -3.45786251227852,40.901012746619 -3.4585601529113,40.9000767166452 -3.46083122240867,40.9002307421664 -3.4605993699288,40.8984696291507 -3.45861860359192,40.8975334368906 -3.45608747271813,40.8992631478972 -3.45374904125263,40.8993254768828 -3.45235105066809,40.8962645229896 -3.44855086440255,40.8946767032552 -3.44553815838309,40.8961315287972 -3.44296754116266,40.8926930019111 -3.43959310962939,40.891149186781 -3.44483430320515,40.8871033408452 -3.44171062470529,40.8827102050434 -3.44048801580704,40.8753496041684 -3.44824990183291,40.876431384247 -3.4521120547851,40.8734931731 -3.45813828878253,40.8720893828265 -3.47266904066142,40.8640962527922 -3.47153876959117,40.8606533709434 -3.46581349636673,40.8568948489482 -3.47050105733452,40.8516572777196 -3.47507120040984,40.8521836037198 -3.47633062765842,40.8512838910705 -3.46974842543329,40.8431779859084 -3.47065009861992,40.8416816435983 -3.47834024339063,40.8388700579804 -3.47927979314293,40.8374032322404 -3.47657392736997,40.8302265639101 -3.47717113276073,40.8240163791166 -3.48268851876045,40.8188676638407 -3.48273340218534,40.8145766901834 -3.49111471073566,40.8083841100987 -3.49174818830093,40.7986216320574 -3.49505390230826,40.7966391989629 -3.50042248866936,40.7988375698135 -3.50322702000323,40.7961372691242 -3.50259005607625,40.7913628001941 -3.50450688212782,40.7891749850241 -3.50266749714197,40.7884266019348 -3.49778545001685,40.7891250348159 -3.48611030678059,40.7850110911138 -3.46776107893698,40.7843097071907 -3.45901044782056,40.7813236906103 -3.45787781238442,40.7784934129999 -3.45002486503648,40.7716523200521 -3.44680662627662,40.7664468056395 -3.44788415815486,40.7641007281454 -3.44412600675646,40.7610600977271 -3.44480848023398,40.7481278456626 -3.44694503330571,40.7414322429406 -3.45002899818512,40.7410464058974 -3.45128428869181,40.7382502729707 -3.45059663283339,40.7351026417713 -3.44840115656722,40.7329193521498 -3.4418925892459,40.7375779061177 -3.43394596288519,40.7317159200722 -3.43785172994272,40.7224049538304 -3.44218164195154,40.7200282416161 -3.44649147481706,40.7143623189758 -3.45480528485525,40.7091367368861 -3.45607231005447,40.7041581290394 -3.46121444640385,40.7020842746042 -3.46026625126524,40.701860640109 -3.46339178927772,40.6982089179125 -3.46229906958292,40.6930036609785 -3.46432990531879,40.6923050490478 -3.46837967411295,40.6929615408021 -3.46854510426244,40.6899367888989 -3.45633467381299,40.6879339741028 -3.44882283564302,40.6825869616502 -3.44911247674517,40.6793661066537 -3.44778868520649,40.6774731328639 -3.44227667292876,40.6779762708329 -3.44170515037199,40.6742074337778 -3.43593469278705,40.6753283479073 -3.42677641966942,40.6723751811578 -3.42555381256777,40.6823766348119 -3.41911752728746,40.6803200272319 -3.41530754758871,40.6717970660312 -3.40953751490686,40.6718608815927 -3.4093216838801,40.6708094490147 -3.40473567565849,40.6696364041705 -3.40477020779633,40.6776982069937 -3.40037926155218,40.690662488685 -3.39335525888717,40.6924577469632 -3.38570851711776,40.6840792788425 -3.37809618082369,40.6818639076956 -3.37465224484024,40.6801120537612 -3.37292541516622,40.6777168390887 -3.37151270478751,40.6724098252142 -3.37232140324054,40.6691100309161 -3.36783995981635,40.6648506158836 -3.36773421822594,40.660678087795 -3.36226428213784,40.6537288206991 -3.36545195212693,40.6507352038411 -3.36631999867754,40.6480306290953 -3.36215542608835,40.6458302358627 -3.35568802406494,40.645353026155 -3.34507554019906,40.6416869908187 -3.34678468294352,40.6380684496799 -3.34560044019262,40.6377422680653 -3.33888670215206,40.6363080761141 -3.3387776897957,40.6376696207299 -3.33705384342671,40.6377440002137 -3.33744739535269,40.6409806347424 -3.33229650761581,40.6394604307477 -3.3292840953454,40.6408455492686 -3.32717303466479,40.6405866758626 -3.32559437041879,40.6425667478118 -3.32238467463729,40.6438135678879 -3.32376964504004,40.6450429646575 -3.3168634249835,40.6519835356261 -3.31649880689451,40.6551763487991 -3.31385919277207,40.6497430751803 -3.32075178897902,40.6441450671017 -3.32267683461545,40.6406326129715 -3.32452773959655,40.6338032309021 -3.32367772403029,40.6296859057855 -3.33186126308088,40.6259158939229 -3.33757760435645,40.6254411858929 -3.33577227809627,40.6246602537274 -3.33598695029639,40.6234003728308 -3.32820862779569,40.6202129958709 -3.32164215596951,40.6121635169522 -3.32561227294411,40.6109348807004 -3.32525101904583,40.6100566341524 -3.33141859217346,40.6039437469235 -3.32955631901245,40.6026193439838 -3.33071941272661,40.6009204966392 -3.32775296455439,40.5989277677583 -3.33034277517912,40.5973685907745 -3.32827686023142,40.5948360557499 -3.32116539759035,40.5896821140632 -3.31608555671102,40.5840731532279 -3.3083411572904,40.5791239301705 -3.30268838888911,40.5782879850061 -3.29770291603037,40.574397578642 -3.29634987804105,40.5752069476953 -3.2895604030388,40.572158139142 -3.28671041515496,40.5725692197262 -3.28407057286042,40.568976424252 -3.28711697288963,40.5651577536955 -3.28313350964485,40.5636189121326 -3.28835747892331,40.5586072489839 -3.28482928455948,40.5557174069008 -3.2863974672628,40.5541512811229 -3.28310339721822,40.550964137017 -3.28514231958825,40.5476237692125 -3.29093992066784,40.543915669261 -3.29712799155361,40.5375211039007 -3.28985275435811,40.5317476319591 -3.28456716963434,40.5356892519019 -3.28155941602698,40.5337206352026 -3.28081146883998,40.5349852729747 -3.27823650287526,40.5334885022371 -3.2749308795978,40.5335416216845 -3.27484331811212,40.5348109286103 -3.27094521009072,40.5354955166328 -3.26661021092246,40.5381001242609 -3.25889755706572,40.5399981320772 -3.25609688130101,40.5418726136191 -3.25172163940467,40.5419825548776 -3.24996216405492,40.544400285802 -3.24199586908107,40.5363261406439 -3.23106058639759,40.5318321679502 -3.22999372201336,40.5324009381278 -3.23278632192363,40.5380062930642 -3.23113884762511,40.5390835047352 -3.22736368842342,40.5363213486722 -3.22684173131078,40.5321354718169 -3.22293731891271,40.5260867756323 -3.20738112306895,40.5195739907641 -3.20033396542922,40.5148009371705 -3.19896571536879,40.503901721774 -3.20212678264908,40.4953736578648 -3.20067179665474,40.4941869128573 -3.19532792564203,40.4785929687161 -3.20016266299277,40.4655759140506 -3.19871077888105,40.4601738870744 -3.2004624793121,40.4463364259207 -3.19859723272749,40.4422515088239 -3.17730305878627,40.4391937020248 -3.17264074856275,40.4362620095868 -3.16904088660557,40.4387877336407 -3.15551465782685,40.4394238900969 -3.15094494504458,40.4309592906191 -3.15101047265294,40.4264366621948 -3.14782470170241,40.4235771997363 -3.14736560869327,40.4195870941578 -3.14207352376008,40.4124566861295 -3.13055736795606,40.4051843499961 -3.13409658824167,40.399749438674 -3.13540228232062,40.3901049181561 -3.14334418264463,40.3875340257609 -3.14326921014934,40.3837789570076 -3.14159397790858,40.3830884610243 -3.14074440790671,40.3777793569669 -3.13828736289104,40.3755423902447 -3.150286858132,40.373395542671 -3.14948210058811,40.3716938157199 -3.15342986208855,40.3677030496307 -3.15057555330816,40.3648624988762 -3.14913921993238,40.3602885741638 -3.1434003839437,40.358133560962 -3.1438677010293,40.3529859991952 -3.14117643287966,40.351643299114 -3.14121188040077,40.3505423638457 -3.14653301235871,40.3498700261496 -3.14719491980612,40.3471961188094 -3.14932867821903,40.3467042061387 -3.14859002140868,40.3460114481587 -3.1503849326015,40.3461848450844 -3.15282057884876,40.3432987309736 -3.15560684383963,40.3424626272646 -3.15132683593983,40.3381702596258 -3.15290506090964,40.3315838692178 -3.16231769110168,40.3273936278277 -3.16211111541723,40.3261335319453 -3.16757943813109,40.3234554737381 -3.1760930029457,40.3160256596219 -3.17841564472355,40.3153094678391 -3.18285745717236,40.3082672987203 -3.18031881099289,40.3019957010479 -3.18182837233568,40.2976063960257 -3.18076378518065,40.2913402577412 -3.18661055464901,40.2789599830854 -3.18653786117959,40.2753341211326 -3.18373787621936,40.2698647231673 -3.18940815637876,40.2631998272025 -3.19730514183689,40.2576704869226 -3.1951132758998,40.255249236789 -3.19444997336875,40.2480371817448 -3.19538125592552,40.2476200200057 -3.18316890218303,40.2433989120978 -3.1784021412482,40.2362440747919 -3.17339825921433,40.2341691567853 -3.17046784067149,40.2436934641074 -3.16144959783863,40.2552916626027 -3.15570117233435,40.2594210819572 -3.15361754530419,40.2636751276089 -3.15046570462024,40.2652560880639 -3.14344897471573,40.2663659496294 -3.12823525887922,40.2787615571629 -3.11208406480542,40.285625244706 -3.10950694468067,40.2851862642088 -3.10773463779534,40.2802958047129 -3.10240324258532,40.2785348126532 -3.09824597779097,40.2750787907193 -3.0958849761539,40.2688552972255 -3.0990602808331,40.2604830489562 -3.09200351301641,40.2509209112488 -3.08742221556017,40.247252945964 -3.08692136616172,40.2452688650899 -3.08996673043336,40.2386927431381 -3.08697700870871,40.2337699890121 -3.07991043667902,40.2277620487591 -3.08050110772443,40.2190108040864 -3.08254143326295,40.2144346327084 -3.07945112268434,40.2085490059844 -3.08147587323249,40.2039684102053 -3.08823077836761,40.2003180277105 -3.08463905155362,40.1983757728919 -3.08669944904883,40.1923523428311 -3.08440058298169,40.188686295898 -3.0857602164019,40.1861455440391 -3.08312032739498,40.1839257308912 -3.07712750533617,40.1725112757023 -3.07775350532509,40.1661673436427 -3.07046694217051,40.1618681408024 -3.06784559169612,40.1579145442474 -3.07169507660616,40.1559878242488 -3.07801351100592,40.1571117626778 -3.0830430228732,40.1594101989242 -3.08249157676466,40.1617539711387 -3.08517477355147,40.1636386038181 -3.08927703809421,40.1629706329918 -3.09756078331644,40.1539149421525 -3.09732265340934,40.1523907386771 -3.09319074985208,40.1505102239262 -3.09646798007834,40.1473866726104 -3.09675570327735,40.1423888722026 -3.09439415187129,40.1427187590707 -3.09295903391608,40.1388296280172 -3.09285315308684,40.1404153538935 -3.09018760729708,40.1416076177711 -3.08808389034395,40.139797401924 -3.08990076265046,40.1395302608057 -3.08846498533187,40.138538466034 -3.08518320334207,40.1388535289138 -3.08243303535425,40.1351372976276 -3.07717592363169,40.135559843906 -3.07732879982501,40.1326325677109 -3.07235267124185,40.1310987141184 -3.07440645533995,40.128623429732 -3.07325432466561,40.1267952511496 -3.07149720469848,40.1267035360965 -3.07293375995809,40.1255476140091 -3.07039695532501,40.1226976718537 -3.0649353753657,40.1219792041638 -3.0655746129286,40.1203255897135 -3.06797865824083,40.1196493796305 -3.06758325758197,40.118524350121 -3.06577818734167,40.1183803212424 -3.06459764924303,40.1159042762697 -3.06187456995262,40.1153093339231 -3.06147624797251,40.1133111928712 -3.05619359175649,40.1137436261361 -3.05603278433746,40.1121949759841 -3.05776537490746,40.1114535558032 -3.05353017677063,40.1064985695856 -3.05415454901222,40.1052279149679 -3.05609911863299,40.1057242942315 -3.05654902097843,40.104888924935 -3.05298263294369,40.0993884962265 -3.0607064546561,40.0905643591492 -3.07262996679706,40.0831345401811 -3.08971802915196,40.0701245588825 -3.11226483189168,40.0644713715863 -3.11818951493958,40.0614283810537 -3.14091265786787,40.0632051340044 -3.14961229971044,40.0660224718715 -3.15812319293542,40.0644796669518 -3.16157876569505,40.0649272542542 -3.16316655233272,40.0837081701733 -3.16804707771183,40.0851383318814 -3.1663571068122,40.0910207901299 -3.17059323560363,40.0906574939772 -3.17813762692289,40.0922067038539 -3.18051882897574,40.0903695756089 -3.1810398257894,40.0882092229425 -3.1763782387097,40.0868171587988 -3.18007244892454,40.0843149808834 -3.18363671064698,40.0855221310805 -3.18590780978874,40.0816975827198 -3.18861818959601,40.0824987196643 -3.1891822992551,40.0773740457477 -3.19959689773862,40.0676841118452 -3.20745372041867,40.0638287650649 -3.20510676214445,40.0620472549006 -3.20064018673652,40.0619378216627 -3.20095602271231,40.0604867231977 -3.20471855878769,40.0600594937734 -3.20899724526572,40.0627998698937 -3.22899861774892,40.0560448575988 -3.24362265787348,40.0534187658548 -3.24564325191674,40.0594599777157 -3.24581164111678,40.0570423851996 -3.24833887599715,40.0572055140503 -3.24937770935127,40.0559221360703 -3.25433897261312,40.0579927161546 -3.2575194794361,40.0544386328456 -3.257704730014,40.050393837714 -3.26217423123479,40.0532813742065 -3.26285331177552,40.0567188388197 -3.26478119608825,40.0571010359427 -3.26652876157394,40.0563510691335 -3.26697209903129,40.0527858508868 -3.27194187293216,40.0533653969233 -3.27365185290641,40.0547020568972 -3.27417271587109,40.051844801106 -3.27264215730685,40.0493310577992 -3.2757557890485,40.0472749472527 -3.28315444757748,40.0490456850523 -3.28316337323816,40.0514999176446 -3.28564411940431,40.0526236858122 -3.28729386105048,40.0515520076705 -3.29000944479819,40.0527418089931 -3.29649968828433,40.0516362401832 -3.30249437075412,40.0533129122188 -3.3080705362178,40.0606672728844 -3.31179028284125,40.0682543020115 -3.31564341401295,40.0702422578225 -3.3190977938099,40.0741880638824 -3.33224093334073,40.0804815241712 -3.34616706603282,40.0801590396983 -3.34994303281999,40.0777287437403 -3.36189394806872,40.0752650391171 -3.37529011876059,40.0753929210918 -3.37770845896395,40.0747670910627 -3.3791291131447,40.0661655398087 -3.37767124086338,40.0622835660176 -3.3747345871142,40.0596145078013 -3.37430152907863,40.0550318458968 -3.37591786956599,40.0504596167611 -3.3764301751792,40.0498182925835 -3.38520959730054,40.0518618508069 -3.38653926202449,40.0498122268481 -3.39153009962213,40.0484098598645 -3.39427598893429,40.0447949361729 -3.39407911056335,40.0423503392408 -3.39146623569364,40.0411149220298 -3.39314082384236,40.0361206049877 -3.40107210787634,40.034180445183 -3.40964336609178,40.0375061068319 -3.408327574949,40.0400536067758 -3.40993904117761,40.0417950588799 -3.4144778016085,40.042150028783 -3.41761970692541,40.0450516037563 -3.42205653641933,40.0451244409534 -3.42441988984584,40.0468680569423 -3.42624823274022,40.0463454707216 -3.43035068323429,40.0383566896124 -3.44015179256586,40.0390372700681 -3.44596705811718,40.0372290369137 -3.44775108981355,40.0383538711608 -3.44840067956179,40.0410257550786 -3.44862452535756,40.0442525811625 -3.44679167741201,40.0475598281646 -3.44832893381498,40.049763632181 -3.45648756617602,40.0500210030841 -3.45506992494469,40.0467005799126 -3.46056682306772,40.0452801691848 -3.47006768578696,40.0407022420161 -3.47322342336262,40.0421417692118 -3.47255471027858,40.0459984592426 -3.47884511634323,40.0447824221353 -3.48330103773191,40.0460149279363 -3.48524246324917,40.044484457799 -3.48574936729266,40.0419257958547 -3.48856707691174,40.0413183578358 -3.4905933878335,40.0475803049078 -3.49565215962622,40.0475751336316 -3.49958302291781,40.0450144207549 -3.50379715376456,40.046197618214 -3.50686332481486,40.0486736806164 -3.50671980906674,40.044809302178 -3.51145312302862,40.0458868539613 -3.51056620556884,40.0428724966916 -3.51519688161959,40.0432824539802 -3.51729195318648,40.040124126798 -3.51688897793316,40.0371894706342 -3.52199765203818,40.0260082116664 -3.51968973005462,40.0210713909374 -3.52092193924839,40.0203742429989 -3.53057698790464,40.0180952932542 -3.5510998036642,40.0181186407875 -3.57468786341269,40.0156136946306 -3.57523259730941,40.0136956497251 -3.58330017643323,40.0127125920226 -3.58999643595338,40.0131720036253 -3.59532873307198,40.0011405109789 -3.61034369395695,39.9982405879624 -3.6156166717241,39.9939526578621 -3.6224737799857,39.9910446442339 -3.62926388201201,39.9926334628331 -3.63794596628234,39.9883517026973 -3.63102884966141,39.968688301585 -3.63395333123851,39.9689942918733 -3.63450032260156,39.9658916132583 -3.66159821964102,39.965820312192 -3.66582777366287,39.9635427602685 -3.67764505373337,39.9607704149496 -3.68339481862571,39.955461399668 -3.69759033361359,39.9467184740159 -3.71110675099275,39.9547091558361 -3.73057787491324,39.9444241680069 -3.74387129270963,39.9408024996482 -3.74845976680673,39.9294161418421 -3.75658394518335,39.9211122910585 -3.76999753241197,39.914636989253 -3.7713343342509,39.9153192156505 -3.77879786641469,39.9108545632685 -3.78977923177394,39.8991171249497 -3.80642119884367,39.8873890469813 -3.80445547299956,39.8847954100571 -3.81483580165331,39.8858026651866 -3.83454885176124,39.8999600988857 -3.84487904274404,39.9026330770093 -3.85977256487733,39.9025338016019 -3.86834903421975,39.9048943299068 -3.86969070672417,39.9076640587055 -3.87350201143794,39.908656674778 -3.87252069002499,39.9095051361713 -3.87539493691309,39.9107260407225 -3.86744801231171,39.9170375446393 -3.87551897628747,39.9281985050753 -3.86832116398805,39.9318350367006 -3.86688686888966,39.9312965026678 -3.85315737920993,39.9393353048369 -3.83935573235503,39.9424038186923 -3.83761894575437,39.9410617781477 -3.83707725265486,39.9302179325926 -3.83268291257556,39.9297450931768 -3.82990040703416,39.931918297624 -3.82886844130039,39.940860248192 -3.82476526406927,39.9467612241924 -3.81832629192805,39.9467044117329 -3.81395848089568,39.9525103716425 -3.80731292139186,39.9548362647476 -3.80480428972273,39.95455637886 -3.80233559804943,39.9526814396567 -3.80233757074973,39.9478432165851 -3.8010689752954,39.9464644516747 -3.79623347707168,39.9483988082184 -3.79071868720313,39.9462651937828 -3.78701088996957,39.9465246340842 -3.78566248998205,39.9493988690869 -3.78865556062606,39.9541717631157 -3.77444920387095,39.9588714430966 -3.76910199292208,39.9591683208431 -3.76360309784409,39.9675183157197 -3.75797376738695,39.9583215731571 -3.76913260032037,39.9549382111724 -3.77070408882393,39.9529522399464 -3.77048608207755,39.9505520541854 -3.76563081103604,39.9471975230814 -3.75437085834431,39.9504435191196 -3.75148180632197,39.9527877916733 -3.75142447224733,39.9579007795987 -3.75881678238217,39.9688857406372 -3.75308311440134,39.9673869859147 -3.7493812029296,39.9630544776232 -3.7408410201348,39.9615506059219 -3.73294000663092,39.9628531845873 -3.72510594276859,39.9672001017502 -3.72422469277993,39.970241879992 -3.72666021236475,39.9720143246572 -3.72887913555817,39.9722404939587 -3.7313291979691,39.9694077119375 -3.7371561002966,39.968440762898 -3.73926275384246,39.969455534254 -3.74123201186219,39.9707593226787 -3.74674050813387,39.9803352627939 -3.74385029458989,39.9823831762662 -3.7392863085675,39.9817302310282 -3.73493767027831,39.9757793561712 -3.73371955026147,39.9793928988329 -3.73579856713761,39.9820868398621 -3.73549652030138,39.9846344170633 -3.73321581008437,39.9864839798343 -3.72968225457499,39.9868306408935 -3.72738215332427,39.9897282031743 -3.7229102742629,39.9877559852171 -3.72420924265535,39.9966966929428 -3.72239520094029,40.0004167277891 -3.71482061005784,40.0038704626884 -3.71169670877585,40.0099171462156 -3.70540293672385,40.0154245137541 -3.69640009999809,40.0208306971694 -3.68703354439703,40.0216614189043 -3.68503762168468,40.0177720387946 -3.67961201026933,40.0160972859702 -3.67592022820069,40.0218509058173 -3.6683618896384,40.0271059842114 -3.66815584395994,40.0327884040846 -3.66646645696529,40.0350386971048 -3.66278968215179,40.0368762931758 -3.658367993762,40.0369863079367 -3.6553274830878,40.032633007052 -3.65004061197654,40.0319580241868 -3.64923500911795,40.0388056059924 -3.64728370482746,40.0416191969654 -3.64514061112212,40.0419620658645 -3.63931382018571,40.0402222589829 -3.6355502932686,40.0423978759746 -3.63539267666546,40.0434603431036 -3.63972184486923,40.0467549188751 -3.63944180226594,40.0503626359829 -3.63107938169277,40.0537497678155 -3.62511964728083,40.053388141039 -3.62193259533271,40.0548044188219 -3.62006211067169,40.0580107929139 -3.62428228358709,40.0606201737895 -3.62240295770706,40.0639280421963 -3.61750151056502,40.0666325867737 -3.61726198198103,40.0686790251406 -3.62790128774466,40.0751415232136 -3.62895404588397,40.0783285258796 -3.62331976211632,40.0812076348025 -3.61923872656037,40.0799011757042 -3.61069600063496,40.0819411188514 -3.60969356521956,40.0832388209697 -3.60390171695104,40.0935167696639 -3.6058202686663,40.0955609062184 -3.6111956148499,40.0945145999718 -3.61436122041899,40.0995251352228 -3.60931953278639,40.1038223160303 -3.60649089695848,40.1089905715873 -3.62112439274964,40.1151435221043 -3.62188174619605,40.1132917107483 -3.62894346013669,40.1177353581837 -3.64098906320627,40.1204643546192 -3.64820207859353,40.1243037051042 -3.655903499916,40.125055537151 -3.65680410141255,40.1278811199207 -3.66062301306017,40.1283602456112 -3.66586839907334,40.1353576098519 -3.66718525382135,40.1433601937339 -3.67808079683325,40.1389420788361 -3.68365984588907,40.1324404966448 -3.69155728679298,40.1329611922055 -3.70454792382966,40.1374867807923 -3.71284193769392,40.1416660026983 -3.71194872933217,40.1426895492112 -3.72066072300989,40.1479512559526 -3.72849006622547,40.144514736832 -3.73967158880634,40.1352542502481 -3.74512481084026,40.1326426171275 -3.77187127975404,40.1395759716587 -3.77242797561709,40.1420859098479 -3.77784439816539,40.1466084207792 -3.77899446361297,40.1558173378898 -3.78431038893552,40.1627006996766 -3.79930087162734,40.1742834619609 -3.7988418675514,40.1752055936561 -3.80679978124373,40.1773017885974 -3.81033203689094,40.1690879126145 -3.81793568378122,40.1711882949263 -3.83418266880705,40.1613097131629 -3.84086806500045,40.1625988398159 -3.85164202732683,40.1683473937642 -3.85279489192478,40.1693007190264 -3.85148633671168,40.1775074359441 -3.86597150717471,40.187786851032 -3.87107190330441,40.1897937380203 -3.87624587864235,40.1911061142185 -3.87774764440513,40.1882207792251 -3.88469779836727,40.1897084707812 -3.89442366211568,40.1887328527423 -3.90210443386473,40.1908031276691 -3.90497371935753,40.189692425261 -3.91022431200608,40.1897413489201 -3.91734326839326,40.1922744898536 -3.9228089967726,40.1985646089509 -3.93114370791243,40.2039764861641 -3.93583613505412,40.2026584208231 -3.93866221158179,40.2036034391186 -3.94013297199251,40.2012421040337 -3.94098522166886,40.2016439300532 -3.94281946829129,40.1962209757864 -3.94870106274825,40.1930768301714 -3.94915140167493,40.1995319480025 -3.95075222107079,40.1968134949509 -3.95629773871193,40.1990850877903 -3.95291694890313,40.2123392992378 -3.95618566310047,40.2114645730409 -3.96210457537094,40.2122867759491 -3.97692731385312,40.2119284202441 -3.99100259203521,40.2094781681904 -4.00122322268931,40.2175415017081 -4.00617444278627,40.2182493566738 -4.00880318010727,40.2198157219418 -4.02060938844179,40.2308351000412 -4.02210357601681,40.2335877399785 -4.02615899521415,40.2356104716444 -4.02664121624852,40.2447397338937 -4.0237681910692,40.2490193078751 -4.04186974260918,40.2497091899846 -4.05208604338363,40.2515285668943 -4.07289429612979,40.2654513086165 -4.07537546809733,40.2652076151188 -4.08045646870171,40.2669396107524 -4.08723478483144,40.2541898031328 -4.09968424709657,40.2469581831767 -4.10424450870377,40.241797580811 -4.11150069981859,40.2441065496607 -4.12046211432821,40.2435606929784 -4.12445112107662,40.2460481788538 -4.12812598786842,40.2463061400271 -4.13146720599072,40.2489807471601 -4.1437287712411,40.2448295252521 -4.14576968158284,40.2451769171892 -4.15072688086637,40.2492323180451 -4.14484677671446,40.2589979467358 -4.14407705077167,40.2642668958572 -4.14710461223105,40.2666603996272 -4.14909305826524,40.2660190366055 -4.15795807635838,40.2707054765864 -4.16067892872524,40.2695611106466 -4.16374322139822,40.2699357342319 -4.16696789029893,40.2727951757669 -4.17250089800139,40.2828249058993 -4.17248613239309,40.2880998928712 -4.17638953508479,40.2897972351323 -4.17962805960039,40.2933696719038 -4.18443280759368,40.2943026241258 -4.19087146891786,40.2973545672262 -4.19710583987176,40.2941279989849 -4.19897121671199,40.2902311918321 -4.20202451939582,40.2892743471561 -4.20384155519577,40.2871835709257 -4.2047379346104,40.2833172409697 -4.20316596011834,40.2751992922371 -4.2048249310558,40.2706513597342 -4.20323052922436,40.2688175031607 -4.20883932778737,40.2682239281504 -4.21374547760994,40.2694455519729 -4.21756546903255,40.2728549632063 -4.21965796243456,40.2720086121134 -4.22098874466272,40.2726270049327 -4.22166448436894,40.2710955258326 -4.22619561630638,40.2698935540713 -4.22844636770869,40.2725390729221 -4.22835269767905,40.2750986438079 -4.23148098992611,40.2766661099389 -4.23408680763097,40.2741315077987 -4.24598870810281,40.2742131980572 -4.24938138441954,40.2726524940499 -4.25376604604992,40.2628139571191 -4.26034556231238,40.2574295000471 -4.26197476128469,40.247649264922 -4.26738595743472,40.2426972731608 -4.26969162195195,40.2359773777139 -4.27561566180604,40.2315848617585 -4.28673356659686,40.22788753905 -4.2911930551955,40.2214664642269 -4.29547054871085,40.2187349566143 -4.30676406515653,40.2219640218546 -4.30972344538415,40.226438101081 -4.30584383457279,40.2321466001524 -4.30796405806925,40.2338686038513 -4.31114885883936,40.2345788989846 -4.32147596231252,40.2264552222525 -4.32634671132629,40.2317284509983 -4.32646968080725,40.233503075767 -4.33335079923978,40.2382559952444 -4.34170558323466,40.2404681886082 -4.3482172829814,40.23684460209 -4.34793027843459,40.2438845641953 -4.34475931261824,40.2532969761445 -4.34788511563368,40.2560371148575 -4.35069523808191,40.2627713200912 -4.35685895204707,40.2702670147168 -4.35832240017141,40.2756295601324 -4.35679300492547,40.2844903057026 -4.35865306194262,40.2937725827871 -4.35638675710955,40.3086207788163 -4.35690277186667,40.3096517659071 -4.36309637637463,40.3115879456529 -4.36485219737781,40.3140447180259 -4.37320099859293,40.3142792692148 -4.37534760381271,40.3150916011477 -4.37641118215965,40.3170428895902 -4.3796631032511,40.3180108985978 -4.37831155107522,40.3148275081383 -4.38125835039725,40.3126842716372 -4.38348313958949,40.3087883161971 -4.38159442002651,40.3073433475963 -4.38717419132778,40.3011694478385 -4.38295923043766,40.2994262167127 -4.38515589158173,40.2912990687197 -4.38348292489209,40.2890488617224 -4.38926605411249,40.2866795928088 -4.39304582077325,40.2869071069468 -4.39727429412187,40.2846480267824 -4.40767693063906,40.2737013071337 -4.41180476123479,40.2725447246889 -4.42004516004966,40.2650808957154 -4.42666359672008,40.2615931608934 -4.42717371763059,40.2575562817704 -4.43503448481308,40.2593034212653 -4.4363898709986,40.2550484528564 -4.43452276040978,40.243880670188 -4.43813196843919,40.2372297390691 -4.44750558390011,40.2336119771505 -4.47371671798998,40.2314646851238 -4.47969841082072,40.2300715737416 -4.48292680413657,40.2272964567661 -4.49750357940241,40.2216146808087 -4.50088777472451,40.2218674426047 -4.50156368511059,40.2207211402102 -4.50978937760592,40.2191892552205 -4.51711341128766,40.2144559640487 -4.5168808877662,40.2055087946405 -4.5181718306099,40.2039556976512 -4.52842331659738,40.2005595561323 -4.53321485486438,40.2009917051434 -4.53586132492902,40.1995602366303 -4.54540297655211,40.2006675046189 -4.57517038005337,40.2070770371404 -4.57262849993888,40.2130125121511 -4.57549279798524,40.2159283920671 -4.5790055206649,40.2174030462505 -4.57448741789234,40.2197078327569 -4.56563475702424,40.218035126815 -4.56074857405552,40.2227587361682 -4.55915136858199,40.2345999229255 -4.56020294004688,40.2363694842189 -4.56590922378458,40.2396527481689 -4.56688891834861,40.250531253714 -4.56921812411613,40.2572022850223 -4.55640421534029,40.264519316115 -4.55411275678092,40.2764147746957 -4.55549160426673,40.2770448987841 -4.5499343330684,40.2798941759036 -4.54681036800604,40.2801071567203 -4.54719746374002,40.2810929189207 -4.54222844532234,40.2865645608819 -4.53393761957901,40.2887648089077 -4.52908640982098,40.2927478592177 -4.53733958267914,40.3101426588209 -4.539838791021,40.3212172996007 -4.53985873541689,40.3277934279703 -4.54426850226459,40.3301850440598 -4.54289500694131,40.3318970032079 -4.54778612884743,40.3393720167912 -4.54647124410477,40.3421102726385 -4.5389834547333,40.3405615209803 -4.52641339633625,40.3449081526726 -4.52676906989998,40.3382279576377 -4.52098202761823,40.3358357870762 -4.51813257872353,40.3305580037976 -4.51571202057978,40.3291753670844 -4.51297753897347,40.320580749228 -4.5043816480546,40.3150983185845 -4.49845167842131,40.3162293297242 -4.49090646065199,40.3204528542058 -4.48554177118259,40.3210984286921 -4.46669086389721,40.319672290907 -4.46496580300594,40.3184356460305 -4.45576289170357,40.3193499647326 -4.45617126762832,40.3208268142602 -4.45316479142536,40.3247573402636 -4.45381440273314,40.3330930980343 -4.46132329712391,40.3397839941211 -4.46059714486234,40.3413805171399 -4.45728332625455,40.3446826441312 -4.45202842618419,40.344618986162 -4.44862942393126,40.3471029737743 -4.44300631610406,40.3474525185939 -4.43870009716087,40.3529404678294 -4.44120923458151,40.3591684191875 -4.43917699837217,40.3615666421574 -4.441870458411,40.3626763189571 -4.44069756317884,40.3667214369995 -4.44175579834653,40.3680199548383 -4.44031828997435,40.37633216996 -4.44124295464235,40.3785053859408 -4.43980689974434,40.3794971237419 -4.44136496382425,40.3827370549653 -4.44352657360422,40.3834479622124 -4.44373012466111,40.385699435919 -4.44137204075205,40.3872152951081 -4.44193988560606,40.38876039162 -4.43742686280639,40.389674225962 -4.438472475746,40.3913080288031 -4.43720730197454,40.3940354100707 -4.43325883170333,40.3960870660339 -4.43255121527933,40.3981687436719 -4.42359322065598,40.4021279258652 -4.42188011723945,40.4064011469224 -4.41743856260718,40.4064646651492 -4.41471560369095,40.410371817613 -4.40252702476081,40.4113941158849 -4.38553638469839,40.4093017546698 -4.37799984734971,40.4072772961486 -4.37354847862287,40.4079569917369 -4.36537979501214,40.4068576760899 -4.35955130895484,40.4113833649968 -4.34743468867214,40.4116948650955 -4.33210679426806,40.4084189428061 -4.32120263461594,40.4103851445918 -4.32682883624096,40.4139785630138 -4.32408085475255,40.4179118816666 -4.32357095931919,40.4234745759274 -4.32674175625226,40.4238269066441 -4.33070428605595,40.4223649417677 -4.33457558116276,40.4247241357172 -4.33569885256033,40.4273761611937 -4.34120197960156,40.4288006476994 -4.33896714814277,40.4312254021386 -4.34053478017881,40.4380163351996 -4.33891281174622,40.4382140400023 -4.3380839380302,40.4399044089774 -4.33497223856467,40.4397013612607 -4.33124813690874,40.4411724606884 -4.3352019826986,40.4433345910127 -4.33077980562529,40.4451062230781 -4.33269069021957,40.4487237741001 -4.32260085696576,40.4494310491185 -4.31973233324436,40.4519727641319 -4.31993842833008,40.4555506059771 -4.32545656532134,40.4564674698728 -4.32570811605878,40.4594311320185 -4.32429518828778,40.4605945059786 -4.31842669216597,40.4584859751637 -4.31804855263534,40.4600130139197 -4.32009985019671,40.462495273807 -4.31567018027559,40.464762699065 -4.31857820831,40.466232623241 -4.31710524343357,40.4690133932635 -4.32030083117356,40.4698095997884 -4.3196479005908,40.4710132370898 -4.32389328921615,40.4776039880508 -4.32474160157667,40.4931200890593 -4.32429018018005,40.4992586981316 -4.32263584724438,40.5016253947695 -4.32453132842652,40.504303236711 -4.32421357005598,40.5064836700333 -4.32730883304675,40.50708550479 -4.32751447358493,40.5093548787578 -4.32368651141079,40.5131314661549 -4.32111153017474,40.5180863660726 -4.32019406191049,40.5308372931185 -4.32109723169036,40.5322457301499 -4.32829698075757,40.5340384987771 -4.32397050839797,40.5404341945962 -4.32370437530859,40.5495822622195 -4.31685386157946,40.5532514950731 -4.31263667196909,40.5540541000121 -4.31015892707431,40.5574312436284 -4.2975419218222,40.5623939240534 -4.28924573044172,40.5641464031212 -4.28898686562124,40.5712773422235 -4.28682140027211,40.5744817926504 -4.28530847024702,40.5828378816096 -4.28114158988581,40.5888706730437 -4.28303859191567,40.5901600326705 -4.28346459278639,40.5956673931315 -4.27891050799506,40.6007570929621 -4.27857618828397,40.6032907820759 -4.28444775305077,40.605987173778 -4.28889612230283,40.606475166267 -4.29011590240633,40.6077723579616 -4.28853182581069,40.6248482369013 -4.28915378966902,40.6272110200974 -4.29068921440716,40.6277715928109 -4.27946904181113,40.6305426972297 -4.27244166058232,40.6290978759396 -4.26666927790774,40.6126938889249 -4.26207833434197,40.6055462977045 -4.25724780020849,40.6038808676191 -4.24410051135932,40.602363111254 -4.21520156943034,40.6049319157734 -4.19292798389446,40.6132897369455 -4.17649839203257,40.6163156210478 -4.16141760529847,40.6234919379361 -4.16302228475516,40.6256841979301 -4.16877247634725,40.6259144662324 -4.17311706862447,40.6302755039459 -4.17072597791695,40.6341914720402 -4.17130954059353,40.6398429089689 -4.16790187229305,40.6438141349938 -4.16754913622034,40.6466463658017 -4.16924308935158,40.6500901886456 -4.16672638182802,40.6527332389537 -4.1686581783038,40.6557576147657 -4.16909872289892,40.663487961064 -4.17395269677315,40.6666645988454 -4.1734636449493,40.6763451128793 -4.17197750088932,40.6802942918408 -4.16734929340895,40.6850810670815 -4.15709968579873,40.6921304901076 -4.1506799358079,40.6927376236664 -4.1443825507318,40.6958602050091 -4.14519208641474,40.6979062961909 -4.14210341705815,40.7028957098365 -4.13909235315901,40.7126652029249 -4.13611677361192,40.7176187950991 -4.13052105811264,40.7230779866634 -4.12573345087333,40.7243912857189 -4.12553595895303,40.7290216037415 -4.12078284163073,40.7356734287937 -4.11064942122108,40.743906838233 -4.1041117673492,40.7469870732233 -4.09696063780011,40.7476576531045 -4.09398665366095,40.7589630636452 -4.09624899063541,40.7651854222156 -4.08059358036016,40.7768896552156 -4.07663539480922,40.7888782941653 -4.0701715788604,40.7938789377762 -4.04702066897359,40.7902975237799 -4.04223576027334,40.7838004551249 -4.03605947977569,40.7835019840056 -4.03238850358734,40.7815918430565 -4.01947798010437,40.7812831942047 -4.00679218456274,40.788006659799 -4.00410693332898,40.7883543446315 -3.97952701043762,40.7844940808628 -3.97794058115429,40.7877862631485 -3.97951965413375,40.7920067818034 -3.97965850493058,40.7998428469092 -3.97541466410245,40.8038964849493 -3.97493317878821,40.8074498281986 -3.96782544235892,40.8119237136888 -3.96210336803521,40.8220968710944 -3.96540099091677,40.8352574492544 -3.96488979741782,40.8384506402556 -3.96301911333078,40.8403219678714 -3.96231761533212,40.8443094819383 -3.95720131722531,40.8481805422419 -3.94662988996118,40.8647527942449 -3.94763027272621,40.8733384176124 -3.94371170198095,40.879027698962 -3.94291484422166,40.8872767319525 -3.94329042535035,40.8886519362417 -3.94890808130207,40.8896958428079 -3.95254805662996,40.8943681336756 -3.94683847787188,40.9014668837273 -3.94209697576618,40.911641593755 -3.93763168764404,40.9152137657307 -3.93660213568342,40.9202710808443 -3.9378264154482,40.9264385921773 -3.92980287623116,40.9270479287755 -3.92175604100386,40.9299509927704 -3.92008725237865,40.9377266762638 -3.91722539235998,40.9431511276069 -3.91188054667518,40.9446974111391 -3.91252184856659,40.9491830500321 -3.90991765142258,40.9497633949099 -3.90715615657732,40.9551490122056 -3.89869892511417,40.9583218310606 -3.89511958516967,40.9655558467793 -3.88696904842594,40.9711488988173 -3.88346666355859,40.9712313661517 -3.88077973157685,40.972786237906 -3.87937937213494,40.9753144270381 -3.8745096022848,40.9750094527284 -3.86825058964437,40.9717430321957 -3.85943281395206,40.9791477950796 -3.84736229700644,40.9794207510769 -3.84705254801496,40.9812217530065 -3.84451219683309,40.9823676460558 -3.83503336619457,40.9842601102524 -3.82969630620833,40.986654429845 -3.82122083175837,40.9847891369281 -3.81498416021906,40.9862874590626 -3.80927880893268,40.9879944712377 -3.80305122744578,40.9923705601727 -3.78185061843128,41.0002001572245 -3.76744365439856,41.0158773387721 -3.76689047633814,41.0195149890077 -3.75901579155694,41.0270967230429 -3.75590004428279,41.0278486729401 -3.74840638531926,41.0366400351045 -3.74336515942074,41.045375822769 -3.73927094557952,41.0497705717045 -3.73917132510946,41.0540529326515 -3.73043951279992,41.0614532638536 -3.72562461294558,41.0625023547404 -3.72038207279528,41.06560411865 -3.71398953187611,41.0732089218616 -3.70712628901935,41.0760212179074 -3.697680447213,41.0818772548376 -3.68760254717944,41.0849366111695 -3.67953751388111,41.0842313022179 -3.67606495308118,41.0866965297173 -3.67217216308625,41.0920016697362 -3.65105839600692,41.1077636231949 -3.64502016321216,41.1212916778049 -3.64094650641797,41.1213279688288 -3.63348527483952,41.1263388899514 -3.63398917222173,41.1348857078579 -3.63277595700637,41.1363435856271 -3.62698540500684,41.1383578668397 -3.62501253306467,41.1406530157755 -3.61897460120557,41.1436690316266 -3.61409710404734,41.1473595701688 -3.61370293138551,41.149053375637 -3.6046240091519,41.1522594867096 -3.60004741257953,41.1553830650341 -3.59880800698203,41.1543409641887 -3.59148411074258,41.1545452730525 -3.59004295521034,41.1582892752488 -3.58272144669291,41.1614207522392 -3.56919420012297,41.1595082121446 -3.55802442211608,41.1643973011085 -3.55044939016084,41.1657010180709 -3.5397038343604,41.1650109710007 -3.53670643742999,41.1605761031927</coordinates></LinearRing></outerBoundaryIs><innerBoundaryIs><LinearRing><coordinates>-3.37226071934819,40.6356110671944 -3.38025809872581,40.6328536597701 -3.38213652988382,40.6304700406971 -3.37679154675678,40.628745238671 -3.37444403691697,40.6261366837492 -3.3717307995688,40.6257679519084 -3.36937801661823,40.6279430299786 -3.36816277929519,40.6325251627361 -3.3636666600942,40.6316015498667 -3.36360784918922,40.6384204957823 -3.37266703004612,40.6389258956672 -3.37405097097956,40.6402484549074 -3.37484651540192,40.6384855457462 -3.37226071934819,40.6356110671944</coordinates></LinearRing></innerBoundaryIs></Polygon></MultiGeometry>
  </Placemark>
</Folder>
</Document></kml>
