<?xml version="1.0" encoding="utf-8" ?>
<kml xmlns="http://www.opengis.net/kml/2.2">
<Document id="root_doc">
<Schema name="navarra" id="navarra">
	<SimpleField name="Codigo" type="string"></SimpleField>
	<SimpleField name="Texto" type="string"></SimpleField>
	<SimpleField name="Texto_Alt" type="string"></SimpleField>
</Schema>
<Folder><name>navarra</name>
  <Placemark>
	<Style><LineStyle><color>ff0000ff</color></LineStyle><PolyStyle><fill>0</fill></PolyStyle></Style>
	<ExtendedData><SchemaData schemaUrl="#navarra">
		<SimpleData name="Codigo">15</SimpleData>
		<SimpleData name="Texto">Comunidad Foral de Navarra</SimpleData>
		<SimpleData name="Texto_Alt">Nafarroa</SimpleData>
	</SchemaData></ExtendedData>
      <MultiGeometry><Polygon><outerBoundaryIs><LinearRing><coordinates>-1.14764300384041,42.4410048917045 -1.1449748098172,42.441870145957 -1.14470665012847,42.4373630787487 -1.14898550728643,42.4328484206728 -1.15117175156643,42.4316770048464 -1.15167912992033,42.4284792189102 -1.15296492901072,42.4281577657171 -1.15242742655203,42.4232860851382 -1.15433943673538,42.4144644397109 -1.15877015588869,42.4096636957337 -1.17158131402321,42.4066539451468 -1.17438617234383,42.403798891754 -1.18338302718807,42.4011051902371 -1.18779909032759,42.403030303665 -1.18779371301228,42.4053266558479 -1.18504898881508,42.4082189736997 -1.18042941504292,42.4175205100833 -1.1827426721209,42.4211685039693 -1.18282603038942,42.4245920077717 -1.16661077835099,42.4325105668361 -1.16295644075836,42.4323439299815 -1.15646222043044,42.4378139886056 -1.15403219584022,42.4414851900944 -1.14941324729546,42.4418518817659 -1.14764300384041,42.4410048917045</coordinates></LinearRing></outerBoundaryIs></Polygon><Polygon><outerBoundaryIs><LinearRing><coordinates>-1.0962283732198,42.4856652700246 -1.09166362542607,42.4857333568937 -1.08514139832252,42.4833641090194 -1.08833865603061,42.4758619557166 -1.08747397636571,42.4746948160476 -1.07534025305829,42.4681246497497 -1.06955462741984,42.4664800611316 -1.06977654004106,42.4615954599565 -1.06762269889166,42.4599769651849 -1.0657876527686,42.4537879362011 -1.06246992379442,42.4528296049295 -1.05651533493238,42.4483368066091 -1.05436070775716,42.4488045116571 -1.05096280683874,42.4419205917156 -1.05286205375849,42.4379184440832 -1.05716590474261,42.4339841389074 -1.06163891927449,42.4344021338255 -1.06453099861936,42.4360269898548 -1.06727615041461,42.4345244111462 -1.0739401640093,42.4372392920753 -1.08053029207024,42.438412614031 -1.08341443479951,42.4371280612062 -1.09337634166868,42.4401761230566 -1.10901969295956,42.4415341850176 -1.11629371293779,42.4450761897049 -1.1251061472475,42.445175780738 -1.1293645318001,42.4467223262086 -1.12572534878628,42.4556303502532 -1.11723287641452,42.4628234870434 -1.10952209644342,42.4749258927937 -1.10208224387044,42.48279963195 -1.10285101939569,42.4843343042155 -1.0962283732198,42.4856652700246</coordinates></LinearRing></outerBoundaryIs></Polygon><Polygon><outerBoundaryIs><LinearRing><coordinates>-1.66426984241292,43.313744484085 -1.65477684983389,43.3125562289546 -1.65243861599774,43.3099715586161 -1.64507887428347,43.3067681589872 -1.63537639458018,43.3090492009716 -1.63285229212523,43.307235154784 -1.62412181830546,43.3060000030899 -1.62269451928651,43.3007120021171 -1.62853013078069,43.2925465699546 -1.63055334161641,43.2844754186663 -1.6282019133253,43.2808213940925 -1.62557270977874,43.2706960680684 -1.62360465370478,43.2704338398346 -1.62169827416166,43.2635794158798 -1.61757904223979,43.2577934569436 -1.61038799425447,43.2547051331329 -1.60871897296562,43.2518169931637 -1.59995432723244,43.2544542168476 -1.58155038659807,43.2537555081454 -1.57523469295821,43.2500399086588 -1.56967133208057,43.2556978201636 -1.5632766648491,43.2697781766583 -1.56042999444353,43.2729873349206 -1.56070726933744,43.2749470227784 -1.55712711641763,43.279550391711 -1.56007843516381,43.2841746941993 -1.56368243565954,43.2845868741588 -1.56509878601183,43.2880425777775 -1.55173096794692,43.2919694508514 -1.53976623481254,43.2916035939285 -1.53530467559712,43.294683463715 -1.53246180596356,43.2935535899322 -1.52483806915024,43.293170273169 -1.51486403592314,43.2944577231393 -1.50610663869597,43.2934905278104 -1.50234332557791,43.2882930868743 -1.49883831134164,43.2871868998627 -1.49653319210181,43.283186830737 -1.49274426532003,43.2816461988467 -1.49235478905053,43.2803866478875 -1.48303524408483,43.2834171528515 -1.47802051130066,43.2773226889733 -1.46872217016898,43.2733852230359 -1.46154005503083,43.2714271632455 -1.45386624792023,43.2714507858693 -1.45223514631611,43.2700178252053 -1.44666987921342,43.2693857436893 -1.43909051827682,43.2667483202605 -1.42696354580884,43.2670761749375 -1.42017336023922,43.2693422369671 -1.41628965221185,43.2727535237982 -1.41273642898757,43.27359567811 -1.40506752667839,43.2703823579152 -1.40278594868885,43.2663925017009 -1.40074229219726,43.2670612138274 -1.38278931481874,43.2532456041226 -1.37777373222831,43.2329442599951 -1.3797939516741,43.2264728058998 -1.38192051997147,43.2257381128017 -1.38430881961341,43.2212116880954 -1.38230735160084,43.2159123619407 -1.37928921526538,43.2141221262033 -1.38430974667477,43.2104254066847 -1.38197176167189,43.1995620441251 -1.3859312111525,43.1942496476189 -1.38130786894773,43.1896690138378 -1.38275052556475,43.1872913967927 -1.38526040409555,43.1876296648827 -1.39132883914845,43.1861315896911 -1.40230715832049,43.1777458792356 -1.40394627110031,43.1606385992546 -1.40240174463168,43.1555980318555 -1.40752530202436,43.1554450078869 -1.41492503224349,43.1493459066738 -1.40883267325792,43.1419179040232 -1.41373677581996,43.1364200681939 -1.41409509492218,43.129276984655 -1.42140833804067,43.1253435491237 -1.42484207185745,43.1250425787692 -1.42699117169874,43.116736020696 -1.43882959900926,43.1122637210943 -1.44311388199154,43.1117098587046 -1.44082862809584,43.107656936763 -1.45150751542752,43.1039188461604 -1.45158020620198,43.102164469706 -1.45738777678461,43.0993670862083 -1.46279854174329,43.0984404630832 -1.46984193274706,43.0925518516602 -1.47323378530862,43.0867159682455 -1.47099173408991,43.0798637496888 -1.44082051181723,43.0463432260703 -1.35377511095393,43.027993841105 -1.35069031782781,43.0385924970303 -1.34443263559236,43.051309091754 -1.3449579892351,43.0669191486459 -1.34419857595177,43.0732542760093 -1.34204786273619,43.0754900296075 -1.34317822812961,43.0783266069544 -1.34187183426303,43.0812178807871 -1.34600446365905,43.0907839970615 -1.34621526322195,43.0945898396611 -1.33457568159284,43.1021187257606 -1.33358145677903,43.1052744648876 -1.32123509775237,43.1126447602354 -1.2869988308341,43.1165748548489 -1.2787009712821,43.1186422396417 -1.26994121507905,43.1182426239085 -1.27451758886923,43.1136530261859 -1.28136805408934,43.1098155812273 -1.28607050373464,43.1044253879769 -1.28911335002858,43.1039920580454 -1.29528120163399,43.0957081908025 -1.29678979728783,43.0956957918093 -1.29982422726586,43.0924137342292 -1.29911666923232,43.0914824492559 -1.30194264155539,43.0875899772084 -1.30176320756899,43.0854976448546 -1.30572922283592,43.0807856811464 -1.30563920176302,43.0763095778775 -1.30982745394309,43.0692893381893 -1.30557233835979,43.0677355006939 -1.29795297274865,43.0671010979789 -1.29473786192262,43.0637675668605 -1.28776013237619,43.0636525389843 -1.27444126800268,43.0554571258736 -1.27082348735053,43.0549657087875 -1.26515120574468,43.0478425341324 -1.26431187384211,43.0442481506803 -1.247560677922,43.0426317172111 -1.23487422571194,43.0505761770873 -1.2297233289919,43.0554626290711 -1.21239617463412,43.0515713497133 -1.21175209155857,43.0495993756378 -1.18096325507018,43.0325836442551 -1.17419054712279,43.0345304082141 -1.17387241864639,43.0375993107638 -1.16322037477204,43.0346152069403 -1.15818006425672,43.030587213223 -1.15286391794861,43.0290753297214 -1.15213744319184,43.0273644817263 -1.14790191537331,43.0267140220233 -1.14654829168235,43.0252265570331 -1.14547974475361,43.0259155419274 -1.14423644585765,43.0237741648996 -1.14444159411907,43.0134547241753 -1.14185442543959,43.007618676777 -1.13986230080428,43.0095448246195 -1.13404080094486,43.0083102799278 -1.12856210718105,43.0141492009493 -1.12240853699202,43.0152723770337 -1.11538278530713,43.0233088278384 -1.11244768384677,43.024697777215 -1.11130163297018,43.0234244088301 -1.11183025288733,43.0206940016976 -1.10588893843031,43.0165581869738 -1.09218956566873,43.0115078126726 -1.08341171739585,43.0110874496939 -1.08582553098845,43.006731309652 -1.0846777562449,43.004382678147 -1.08611280323318,43.0023958840725 -1.08195951438224,43.0016464011229 -1.08116456733954,43.0006065200803 -1.07945174240079,43.0009964941225 -1.07838877311166,42.9997500418381 -1.07233714733428,42.9979023648846 -1.06382324834636,42.9973713097353 -1.06180051541442,42.9964010969203 -1.05383354760237,42.9971105290307 -1.03920310698143,42.9955937028845 -1.03745018933327,42.9951218466796 -1.03742675588077,42.9937865002469 -1.03292193200465,42.9946709202511 -1.02601080984161,42.9920473860743 -1.01827700604977,42.9937826111519 -1.01076075805008,42.9920932699985 -1.00627542312407,42.9888376387121 -1.00191662309233,42.979424952822 -0.998841197598021,42.9766242266333 -0.989559645978974,42.9726232722512 -0.98118008285527,42.9705543628329 -0.977349043951285,42.9680053507273 -0.9744804591444,42.9632282539468 -0.96798941885263,42.9609205202018 -0.955464269931526,42.9591615451233 -0.945165932310363,42.953369955662 -0.926059386953001,42.9539392386945 -0.922430125831539,42.9549612877869 -0.919849250748863,42.9562915427116 -0.920369935847124,42.9578683948561 -0.916290627751443,42.9640844857936 -0.907496581955616,42.9650113200561 -0.899681289289421,42.9619208218219 -0.895051912202544,42.9556670291779 -0.890805132086738,42.9563108751246 -0.878412446042486,42.9544902347791 -0.875562035950442,42.955121133072 -0.865339342764449,42.951142744157 -0.851622537296467,42.9521106842309 -0.84614487479862,42.9514894059302 -0.839325202029752,42.9526788901052 -0.837021687181001,42.9546817089181 -0.831868031734775,42.9524236498752 -0.827214016554562,42.9525672320861 -0.822448419836314,42.9511169540416 -0.810511633290356,42.9513895236542 -0.799797966784129,42.9595780781971 -0.794057697982621,42.9614328506919 -0.766938875586833,42.9692688297232 -0.761412624113541,42.967877704024 -0.755708253787427,42.9682719019955 -0.751775042299632,42.967167068797 -0.746081650284619,42.9599616700397 -0.745198697988456,42.9523798298079 -0.742399802684649,42.9496620608497 -0.731674212839662,42.9454721766432 -0.735297925965956,42.9400792469649 -0.730607112198482,42.9387633977717 -0.727958828435235,42.9341714028377 -0.726158447400643,42.9223474222089 -0.727613809789112,42.9193192369047 -0.732990755872274,42.9184105911163 -0.734675079063681,42.9195874989456 -0.744122848654708,42.9192068579009 -0.747266240683487,42.9223753977988 -0.753474550612583,42.9244964640896 -0.783213471231273,42.9217266006992 -0.789854973044985,42.9186223920702 -0.789014697911362,42.9171113632155 -0.798730894889024,42.9108963662409 -0.801130218656096,42.9078448570004 -0.809083443142669,42.9042964890343 -0.813332044143507,42.9039995257365 -0.819096157825923,42.9006697296582 -0.820458164595111,42.8933027958221 -0.818737877351291,42.8910368837907 -0.819243173410384,42.8892095390698 -0.813633510668002,42.8882020771648 -0.816439738919483,42.8843295756757 -0.816336509916873,42.8785825948255 -0.814718061981916,42.8769128307746 -0.820000896064303,42.872574267104 -0.818534656874448,42.869367666003 -0.821000279004465,42.8674876130567 -0.826925109376053,42.8671410342105 -0.837355016948581,42.8615305346958 -0.841289870556754,42.8529422710555 -0.851124787984083,42.8481477199262 -0.85683445208213,42.846886049969 -0.857252848713944,42.8333777739621 -0.854406019306599,42.8283177866105 -0.855441516317746,42.8220788668525 -0.851442071145781,42.8075871736742 -0.860393847630737,42.8022799552115 -0.860008453305841,42.7985627787491 -0.849909597373339,42.7921691391171 -0.847534296353589,42.7859201950996 -0.852260153400255,42.78112840304 -0.859544548920083,42.7687570847663 -0.862946738395607,42.7689827341667 -0.864839103322022,42.7633540127708 -0.873311270175115,42.7589822899128 -0.87595989799315,42.7587163227679 -0.883566010758879,42.7617928441826 -0.89048525099718,42.7628031227672 -0.894692100100304,42.7627184506376 -0.89701806205137,42.7607982111799 -0.90053649621963,42.760466512702 -0.901164936931145,42.7527158869951 -0.899417695737245,42.7469296576891 -0.900500486353195,42.7430864359671 -0.923905736246426,42.7441128672265 -0.924769488849975,42.7388826118549 -0.930268625574697,42.7355243179386 -0.935880335577606,42.734274945958 -0.938456578048322,42.7254465671353 -0.944139908033848,42.7227008639419 -0.945054780166984,42.7178579857589 -0.947235931897651,42.7149271818856 -0.946213284388319,42.7139987667996 -0.948613712184919,42.71140169066 -0.954913219980017,42.7125523500239 -0.960533207059955,42.7111875616431 -0.968682455619557,42.7053526408248 -0.969212354737647,42.7037051201057 -0.979144351301089,42.7046553799062 -0.983912181231127,42.7023576591594 -0.988115641888945,42.7027676217528 -0.989944540840519,42.701614477013 -1.00149230117295,42.6999510456504 -1.01681382203013,42.7022617319043 -1.02764999987646,42.7003761521849 -1.02904958676725,42.6948638779877 -1.03918603000783,42.6916340470306 -1.03682848418967,42.6816160236105 -1.03315449774685,42.6745940557903 -1.03962214231535,42.6642030750404 -1.03828876215936,42.65345508964 -1.03580156698781,42.6515771228808 -1.03676602432802,42.6486005621344 -1.04525796759203,42.6458232140886 -1.05167800324713,42.6411858301948 -1.063777295028,42.6419483447671 -1.07078791369361,42.6406720648105 -1.08533423157974,42.6460030848007 -1.10016146163836,42.6462411418815 -1.11779710465121,42.6448794767022 -1.14723847629829,42.6480972830845 -1.15502626973701,42.647080529989 -1.15519206370411,42.6362685367135 -1.15418970823877,42.6355195810021 -1.15712147155958,42.6230541082575 -1.15670023625151,42.6108666481496 -1.1621898427494,42.6141056092493 -1.17191789659048,42.6170619759091 -1.17632464240386,42.6147998787868 -1.17877792258017,42.6151270772395 -1.18012807607917,42.6093390959936 -1.18006735355924,42.6077886426461 -1.1734001536402,42.6053236829863 -1.16953719040764,42.6051454719848 -1.15773975412185,42.5988236720929 -1.1603901309597,42.5980467987996 -1.1617373272048,42.5960180610424 -1.16908167538838,42.5974240577982 -1.17081393717492,42.5968804480292 -1.17474577334201,42.5931975716227 -1.192904676923,42.5835798038243 -1.19761771770553,42.5786927247124 -1.20144629342903,42.5782660888238 -1.20431817325635,42.5705784411405 -1.20395618094292,42.5583125966533 -1.20071074119625,42.5522454732375 -1.20273134332435,42.5493499147797 -1.20691698769522,42.5507156702283 -1.20761699269384,42.5495587630383 -1.21888024579591,42.5485919637273 -1.22660774880439,42.5419955790541 -1.22866114033866,42.5420025550845 -1.22943701704619,42.5430687732449 -1.23100800069654,42.5418835216623 -1.23294612939677,42.5444625320841 -1.23527349182137,42.5440402598771 -1.23888542623763,42.5463049891007 -1.23881926172373,42.5474116409007 -1.25004686698039,42.5495947997223 -1.25019005214846,42.5508718021022 -1.25235818010415,42.5505413286518 -1.25644713520772,42.5525510366575 -1.25712395379051,42.5550080066786 -1.25999753592533,42.554526049002 -1.26469040683482,42.5564652877402 -1.27121936142148,42.5482571580017 -1.27330525490112,42.5418503536791 -1.28768194570873,42.5240002639 -1.28973786689892,42.5145843200958 -1.29454436660699,42.5108500668957 -1.2874225652553,42.5081046006083 -1.28673168264836,42.498526016755 -1.2822303451339,42.4989178531665 -1.27522626889849,42.4960360919311 -1.27495177878197,42.4854994602142 -1.27278068728419,42.4818993801985 -1.27882287536113,42.4705353920931 -1.2817961803739,42.467680234682 -1.28184071615075,42.463869330062 -1.292748734067,42.456013596066 -1.29796315964394,42.4540165390336 -1.30545861344143,42.4529868046395 -1.31216278622089,42.4504539419043 -1.31219295793635,42.4496129428967 -1.31655122706368,42.4486662106074 -1.34168992002806,42.4239900388827 -1.34034180929805,42.4219037217449 -1.34334480363102,42.4079175167322 -1.34840169435147,42.4003936879236 -1.35091099796049,42.3907954210016 -1.35961622822248,42.3780652976914 -1.35654368362525,42.3743232398207 -1.35001788661679,42.3699663296619 -1.34247675438539,42.3730511467534 -1.33563866705162,42.3720514169333 -1.33300575705615,42.3683967471951 -1.33295388114513,42.3642189881554 -1.32953059473509,42.3611071656677 -1.3321620647312,42.358862551238 -1.32879441278337,42.355184132746 -1.33254380291287,42.3498268672112 -1.34025619985144,42.3434338599761 -1.35232094062981,42.3392177089375 -1.35657812593153,42.335453626099 -1.37519806288268,42.3153637181711 -1.38308624395268,42.3040187037804 -1.38739195714436,42.2996400600125 -1.39843906301267,42.2921326630383 -1.39905745157621,42.2909142216657 -1.39640302333643,42.2886560248388 -1.39388996566783,42.2827838688582 -1.38920268407604,42.2767381149842 -1.39138012037472,42.2720664977474 -1.39559602988573,42.2690844148628 -1.39410086494374,42.2646978472033 -1.39937736500506,42.257271948165 -1.39837671723706,42.2488812989561 -1.4006154276212,42.2432776287823 -1.40990171426009,42.2280004018633 -1.41586603816481,42.2232681878602 -1.41752824034234,42.2150911547047 -1.41694636470192,42.2097132911076 -1.4132576926008,42.2021546159002 -1.40768583366053,42.1996282567423 -1.40623146121555,42.1971657098007 -1.39547642279894,42.190498099968 -1.39177897505577,42.1806853861655 -1.39406737934319,42.1736370261379 -1.39377303735716,42.1667359278573 -1.39845339473473,42.1568187531711 -1.39705629527902,42.1555845298708 -1.39410829760435,42.1553153122512 -1.39456514392695,42.1526271827994 -1.39306804311546,42.1494366569883 -1.40094482007297,42.1299968567646 -1.3991645810637,42.1257745908458 -1.39049717975665,42.1223716038977 -1.36733668664242,42.1068158709025 -1.36567270400392,42.0928304758836 -1.35797500260509,42.0834289846973 -1.35324248904213,42.0729539848662 -1.3486139797278,42.0709280349356 -1.34507382519433,42.0706952381831 -1.33244714867984,42.0729057729738 -1.32485241667043,42.0730675622628 -1.32061143517978,42.071936112833 -1.31386793325885,42.0729635209502 -1.31086687838862,42.0724307836546 -1.31274675044435,42.0694031372374 -1.31213884162696,42.0634113507884 -1.30826832895272,42.0617878391096 -1.30770363808366,42.0578545677834 -1.30329609995627,42.0515415236537 -1.30834188300824,42.046251292193 -1.30568752214207,42.0427251339822 -1.32538431274343,42.0297732162641 -1.33943974534423,42.0172536867676 -1.3424775646658,42.0116913516318 -1.35355624002815,42.0000732258926 -1.36595025827395,41.9825598786157 -1.37347487857201,41.9664424389001 -1.37443652059215,41.9617571109976 -1.38587103121489,41.9571121682385 -1.38649845593184,41.9562170316813 -1.38307620797432,41.9544892041194 -1.37998658011534,41.9502082268883 -1.38235536385772,41.9428324407236 -1.39686191691948,41.9389051096283 -1.40373625127505,41.9351829267219 -1.40260614190151,41.9337661747846 -1.40773234393433,41.9293732106592 -1.4081079753687,41.9235452186167 -1.41135594207633,41.9179838400454 -1.41447146028004,41.9174741659888 -1.41804366490627,41.9136383992636 -1.42313406997336,41.9115992830957 -1.42656015643211,41.9128171291017 -1.43176900616603,41.9129154147629 -1.44087967037027,41.9161539838908 -1.45349417381432,41.9154735489197 -1.45764312110746,41.9167519929886 -1.46606845429317,41.9219331469331 -1.47456818684903,41.924622750789 -1.48778940165619,41.9235886358888 -1.49634222374706,41.9242903361514 -1.50171954891929,41.9239333676706 -1.50270251604586,41.9198719592486 -1.50604695462844,41.9154376998328 -1.5084421847728,41.914719070088 -1.51000526324864,41.915399626742 -1.52391412133776,41.9095732069058 -1.55645855874206,41.9134443368383 -1.57667450101744,41.918707160839 -1.58003746196285,41.9211867466078 -1.58640010874603,41.9228740347276 -1.59747320557048,41.9279375167501 -1.60546670871764,41.9407232606214 -1.61318700903412,41.9500112231314 -1.64286331438248,41.9585703079393 -1.64957379243689,41.963818566991 -1.65407821835929,41.9653868170901 -1.65968833475089,41.9622985761497 -1.65929551674852,41.9600648989547 -1.66394475558633,41.9599362151853 -1.66515376309287,41.9627129917198 -1.67365389090751,41.966669144726 -1.67613265898334,41.9667664270169 -1.67674368944635,41.9624684149255 -1.67833344429285,41.9608357750295 -1.67940315992984,41.9617363709024 -1.67930007555608,41.9602654267083 -1.68198136881273,41.9575915046588 -1.68121818979173,41.955945290822 -1.6849248982671,41.9543661267825 -1.6866904201771,41.9521977976987 -1.68836977658324,41.9528598237474 -1.68825912929312,41.9540603470584 -1.69314326230635,41.9555121059426 -1.70085023521724,41.9536379232447 -1.70421176694302,41.9571473519339 -1.71459223393736,41.9567991602304 -1.71840772300375,41.9591170861107 -1.73396505611455,41.9635639329529 -1.74148220242957,41.9687425649581 -1.74396928082012,41.9733687192375 -1.75234289260502,41.9790192731037 -1.75840952294253,41.9871373559235 -1.76720859481229,41.9954117080167 -1.77367825699699,41.9958987049603 -1.786539073102,41.9906226170044 -1.79166982330518,41.9895954361493 -1.80967774793466,41.9982744200057 -1.81658115895935,41.9975020309177 -1.81942549374511,41.9959833799913 -1.82315463225486,41.9968080401761 -1.82862263427012,41.9952861720814 -1.83398523156327,41.9955529976537 -1.8367853288129,41.9995369418691 -1.84008852574076,42.0010249227254 -1.84078274918221,42.0046811949133 -1.84463354203928,42.0054574152097 -1.84536485512222,42.0074574558774 -1.84718320605568,42.0078417959415 -1.8494863579851,42.0049990301578 -1.85486926798343,42.0025057520147 -1.85988152680733,42.006067616015 -1.86034365702036,42.0094338309341 -1.86201486031708,42.0102261126718 -1.86126284555846,42.0113388232559 -1.86459164537024,42.0151010076779 -1.86965640443427,42.0123010608042 -1.87271592076491,42.0130944541609 -1.88062257928201,42.0222030361245 -1.88334243811214,42.0236277931895 -1.88336632341722,42.0268320462629 -1.88653387383889,42.027453299205 -1.89528373420077,42.0263434169803 -1.89947533799521,42.029664273001 -1.90233107060527,42.0292948048229 -1.90395306419075,42.0355539591028 -1.9030208159451,42.0384327350131 -1.90582763798294,42.0490161266976 -1.9034310936033,42.0544190556543 -1.90734277067709,42.0562672028392 -1.90879289229418,42.0586941720867 -1.90564863878108,42.0613982128871 -1.90559253539836,42.0677769906086 -1.90248336738534,42.0710413338888 -1.90213126462487,42.0740618320792 -1.89267382017826,42.085797904754 -1.87463125201983,42.0992459836732 -1.86792307365253,42.1065470877248 -1.86382197602133,42.1072799582508 -1.85964771959338,42.1149422549365 -1.83871716032295,42.1294556917624 -1.83719127120155,42.134442622166 -1.83809181969747,42.1421329067119 -1.83216748609427,42.1485346641385 -1.82163567812742,42.1537546041213 -1.80197344302017,42.1465738859219 -1.79797057796188,42.1409076211663 -1.78202572062064,42.1374751540632 -1.77848215159074,42.1375303399255 -1.78056391102344,42.1405780136656 -1.77992228394187,42.1415748008003 -1.7690814564156,42.1454824326202 -1.764610366075,42.1500708409454 -1.74908642424163,42.1505076046678 -1.74063001024534,42.1501718500086 -1.7355627565598,42.1481139099684 -1.72523613278701,42.1412635030457 -1.71969954080648,42.1330641450014 -1.70848742160699,42.1364530428479 -1.69034074230044,42.1480975677779 -1.67928373340442,42.1518259208324 -1.68565053489573,42.1560779329298 -1.69347557607939,42.1584420009599 -1.69937300244489,42.1675793517133 -1.7005537426645,42.1730262467962 -1.69712390034958,42.1803757146482 -1.67973588782624,42.1888316277327 -1.6818838018914,42.1928426789347 -1.68631314482571,42.1939545480832 -1.68981140103608,42.1919231569917 -1.69770901890816,42.1931879028642 -1.70052188660789,42.1904561020997 -1.70322379260707,42.1909144437698 -1.70445911356496,42.1920238150483 -1.70333475520591,42.1955155889069 -1.70677029373803,42.2025808360348 -1.70596423273865,42.2065349887266 -1.70740164409276,42.2087019787352 -1.71886805568795,42.2121286089917 -1.72190404064968,42.2119942131409 -1.72593984423453,42.2142861511046 -1.72728998515708,42.2123625669922 -1.73648693793417,42.2153012342291 -1.73954828143809,42.2142879740968 -1.74089156192685,42.2123352618568 -1.76619162106233,42.2216588951021 -1.76707058034703,42.2157046419859 -1.76945285858163,42.2140365231021 -1.77140922308206,42.2141267521929 -1.77422126163678,42.2153490330963 -1.78031069211448,42.2243522742243 -1.78782015513883,42.2251065681673 -1.79023069616888,42.2229311257302 -1.80044229066951,42.2227316807836 -1.80333599955829,42.2238922060333 -1.80620034880863,42.2276831236403 -1.81686480111193,42.2282193598199 -1.82135174222567,42.2323520669843 -1.81829750709058,42.246062714127 -1.8192190923339,42.2486389487821 -1.82399894621397,42.2484460711388 -1.82498627915283,42.2455376658262 -1.82939468235792,42.2442845469952 -1.83531198933901,42.2489139591757 -1.84085888230085,42.2509577206993 -1.84716624676141,42.2578552441783 -1.85032433432992,42.2591095341628 -1.85420322020083,42.257393879698 -1.85343599157456,42.2524891687058 -1.85530824591669,42.2501826548717 -1.86634124374348,42.2507932836901 -1.87243163272357,42.2526771168955 -1.87518141174088,42.2550912706407 -1.87637869623305,42.2589632396908 -1.86883483222489,42.2661974390996 -1.86633068314898,42.2760173748687 -1.86916517599251,42.2791946928 -1.86763290703598,42.2836572508959 -1.87140676278224,42.2895298158959 -1.87273669789912,42.2902825259033 -1.87605150824698,42.2870683950045 -1.8838008349269,42.2872629321999 -1.89413377385609,42.2906182307969 -1.89587199416798,42.2923579510706 -1.91522591489333,42.3005942046551 -1.91328343565215,42.3029224241953 -1.90795523215632,42.3056776800824 -1.9068184563851,42.3087896721035 -1.91960193832401,42.3164799131329 -1.91978967184533,42.3188018381748 -1.91656357821659,42.3228865518394 -1.91652955272855,42.3263248186987 -1.92018575702041,42.3277417381778 -1.92639926100854,42.3275096990076 -1.92724502934011,42.3227405189965 -1.93061925426081,42.3207924479462 -1.93407925391821,42.3230919346712 -1.94206842718572,42.3350803239442 -1.94765884442139,42.3346820809601 -1.95516428658655,42.3358095546541 -1.96204244237529,42.3336802896379 -1.96517659702792,42.3339410666494 -1.96883444074514,42.3381821189378 -1.96454724542468,42.3426509041282 -1.96988613438087,42.3471885466359 -1.96775910165446,42.3503817011563 -1.96943536156788,42.3522835261465 -1.97292881538472,42.3536077866981 -1.97741280732941,42.3497399439264 -1.97937963540634,42.3499770130661 -1.98086009223222,42.3523243959591 -1.98013942688039,42.3542779098732 -1.98172508630753,42.3558049761052 -1.99079545118974,42.3593570998841 -1.99570790988051,42.3637011569505 -1.99798286009989,42.3638781209041 -2.00634840860682,42.360612069903 -2.00912735592141,42.3628082776478 -2.01217130085487,42.368589361855 -2.02090773679322,42.3683153921585 -2.02761413469962,42.3630950891505 -2.04536837778788,42.359069709081 -2.04510485610089,42.356901543237 -2.04978897741954,42.3527701747946 -2.05648764981449,42.3491624220789 -2.06183569440003,42.3479005171873 -2.07008804619803,42.3428912926259 -2.08998907686402,42.3465916497807 -2.0897704224323,42.3574218547389 -2.08669650700598,42.3611550790478 -2.07988516521308,42.3657470559766 -2.07879077914348,42.3685914179905 -2.09281188981223,42.3758214650168 -2.08804514774199,42.3841140511888 -2.1098815744331,42.3934809868905 -2.11194970103305,42.3966806087718 -2.11592783277661,42.3994098082211 -2.11060022666044,42.409086442216 -2.10434593915843,42.4164010746898 -2.107050196947,42.4168319936793 -2.1112242287961,42.4196957082455 -2.11477716455952,42.4187325806977 -2.12200401130723,42.4194839550809 -2.12487676699199,42.4188018020979 -2.13647455180753,42.4214087160471 -2.14559510556473,42.4182013287766 -2.14809085808767,42.4159420311966 -2.14995598968793,42.4187330926631 -2.15218141039577,42.4189330692185 -2.15690470904055,42.4162983308652 -2.15700361265499,42.412153541643 -2.15836685999759,42.4104096379422 -2.16568660871535,42.4081403160811 -2.17702828743666,42.4083023962141 -2.18077092762511,42.4121212811133 -2.18223537108278,42.4165598420619 -2.18627318599551,42.4188862822104 -2.19049400929115,42.4178793951335 -2.19499924818892,42.4195530947463 -2.19890550213332,42.4192022707363 -2.20499477989738,42.4153812019854 -2.20973546992607,42.414685177761 -2.21133198639171,42.4217804456588 -2.2154577310994,42.4245972628866 -2.22074700879731,42.4258283726807 -2.22824692093359,42.425176760803 -2.23532327561669,42.4268053882373 -2.23614302424609,42.4375548586077 -2.2387295048161,42.4409583299954 -2.26348520824559,42.4499720200501 -2.26636982259037,42.4490483151918 -2.27008047107663,42.4445286237956 -2.2760445578261,42.4463997886591 -2.27820889938288,42.454927382859 -2.28595840572581,42.4593832419704 -2.28806644267721,42.462782575841 -2.28799980834438,42.4671803800896 -2.29747913036143,42.4680213598742 -2.29726550829192,42.4652389291322 -2.29355018137968,42.4597163117736 -2.29833087698122,42.4572055472359 -2.30720930871814,42.4615312296728 -2.31772995871082,42.4623329517496 -2.32631873407431,42.4683327457903 -2.33049055786446,42.4688058298977 -2.33684386127037,42.4647791299942 -2.33172950891443,42.4578676541738 -2.33242249088417,42.4536879207546 -2.33520291233411,42.4525451308723 -2.34623276515909,42.4515685802049 -2.34839648687831,42.452971190936 -2.34786588258264,42.456480439855 -2.35187164560607,42.465663217661 -2.35794143621672,42.4672785278365 -2.36083137667283,42.4627152247807 -2.3646063858559,42.4617523261898 -2.3708874009326,42.4641274247847 -2.37239802138908,42.468512486074 -2.37490524988979,42.4703510371609 -2.38830297197218,42.4701931389057 -2.39628394092623,42.4734675068508 -2.40017237139707,42.4717869578417 -2.41205365373654,42.4848429578484 -2.41543892164701,42.4903644732594 -2.42061289878166,42.4891438617881 -2.42353270642438,42.4990763187403 -2.42312103727573,42.5107097249595 -2.41056209912362,42.5154655017974 -2.39244051155952,42.516181839136 -2.39220321528903,42.5169528216486 -2.39329981390918,42.5231185596918 -2.39833461056519,42.5287421851397 -2.39863039614389,42.5340577269627 -2.40130660403769,42.5380714040692 -2.3995721234124,42.5445401912526 -2.39569116243312,42.5470295670889 -2.38962002165466,42.5488665620373 -2.39136255118489,42.5556487307454 -2.39047153201751,42.5609022387764 -2.3936032333711,42.5656711186093 -2.39537615560233,42.5789357819589 -2.39965899409365,42.5887176941795 -2.39634673675783,42.5988272091742 -2.40132061416286,42.5978942427676 -2.40852576929145,42.5987321120202 -2.41698339062347,42.6039971429945 -2.41829320886787,42.6069250690811 -2.42121424540591,42.6067935072636 -2.42460158393316,42.6038505636265 -2.42464839693923,42.6001832178849 -2.42775833930004,42.5989357661024 -2.43066533337353,42.5957915577311 -2.43189797016533,42.5921064749224 -2.43541915677164,42.5885384727283 -2.44324491481091,42.5749078499046 -2.4528908096344,42.5657009910211 -2.45417101940708,42.570117687789 -2.45701160372652,42.5731661227478 -2.45671886164004,42.5750385291115 -2.45983421096053,42.5768262882356 -2.45971107888456,42.5829524351066 -2.46210938126716,42.5872105317123 -2.47226674806737,42.5891147108542 -2.48399467720802,42.5888975341531 -2.48847387035249,42.5875791630055 -2.48984052769986,42.5857937162146 -2.49370511508645,42.5932333020439 -2.49456315709969,42.6025045669263 -2.49908963576406,42.6101838848711 -2.49828987375144,42.6159204059849 -2.48431566232708,42.6123544000286 -2.47893210913496,42.615719535041 -2.47130263927351,42.6270969779314 -2.46628463033349,42.6270657581566 -2.46424696560486,42.6286057877021 -2.46310431395338,42.6323332737599 -2.45728783477807,42.6392131706902 -2.45534125293105,42.6383781879861 -2.45030681919436,42.6465835897977 -2.43383733584573,42.6534780469379 -2.43032354866243,42.6538253089941 -2.42988717674177,42.6580963207462 -2.42653829239691,42.6581437480438 -2.41951432207124,42.6612405531633 -2.40695017638539,42.6606075401565 -2.40358814878961,42.6593816259666 -2.398206047275,42.6611747860754 -2.39224882814587,42.6598160730924 -2.38193321502351,42.6548189316248 -2.37725110143958,42.6512509108338 -2.37705311544592,42.6502316377884 -2.38230102123344,42.6476411841898 -2.37934341877183,42.6458122058178 -2.37444259326394,42.6450538016695 -2.37144731186603,42.6429857871945 -2.37659335588685,42.6368940568594 -2.36952053966762,42.6366751546685 -2.36809389821545,42.6367860200936 -2.36774340882928,42.6381974136665 -2.36302143160628,42.6379105977737 -2.35604372900935,42.6354186171412 -2.34992035299367,42.6364252190246 -2.34765073786876,42.6347023700004 -2.34045420926189,42.6369164400343 -2.33589014688268,42.6403594137284 -2.33518529996466,42.6438984622395 -2.33027594944477,42.6461938588059 -2.32759020144263,42.6457452640976 -2.3228860189471,42.6470812898515 -2.31580303469713,42.6511715709119 -2.31302688473637,42.651167316639 -2.31164378193108,42.6526792552553 -2.29778188866332,42.6514900901826 -2.29919949665696,42.6528321772347 -2.29243587966021,42.652783180719 -2.29001284306458,42.6551028756297 -2.28921078405975,42.6669205246392 -2.29350428824841,42.6764941368556 -2.30147599377525,42.6772061680998 -2.30782897019442,42.6739504858806 -2.31042153595215,42.6738192367682 -2.3116931425593,42.6802979457314 -2.31692275235943,42.6824928910581 -2.31219962619123,42.6877559151598 -2.31313114410653,42.6941829889459 -2.31147423570099,42.6971870857134 -2.31461041335967,42.7029312219598 -2.31314903764871,42.7061075699552 -2.31145653439833,42.706300596025 -2.31104254130803,42.7088781667249 -2.31252759211833,42.7090272447092 -2.31241236162357,42.7104803786974 -2.31752814230083,42.7159751436243 -2.31853912967773,42.7190706449614 -2.32068593971341,42.7165950577596 -2.32206098463062,42.7175392416302 -2.32398807662922,42.7227569828857 -2.32200284386875,42.7251114161767 -2.31879609995125,42.7355262868093 -2.29638313271419,42.7382012892032 -2.28854709615143,42.7403028387297 -2.28405464836501,42.7430433980274 -2.27275925713538,42.7434352767042 -2.26792224884361,42.7463047031732 -2.26974013804305,42.7478973531513 -2.27426223203048,42.7592943759281 -2.2762229551567,42.7603435680721 -2.27607114795851,42.7632727319519 -2.2741256063606,42.7647738649815 -2.27244913983461,42.7700927287581 -2.27377297269578,42.7707528918554 -2.27588192233549,42.7787000226593 -2.28191139475954,42.7851994188045 -2.2788967672437,42.788562487845 -2.26882159898689,42.7945236120883 -2.27052073719398,42.8089065351283 -2.26790862140071,42.8132218256692 -2.25684844594335,42.8176862776316 -2.23678538255632,42.8334549620843 -2.23278720939875,42.8431623807223 -2.23494216895073,42.8506816739382 -2.24105628782739,42.8630860706305 -2.24368313958457,42.8871901500994 -2.25328713518662,42.8926451751005 -2.24842895809518,42.8971558739333 -2.23848213573634,42.8954577981995 -2.23745071438161,42.9164233866305 -2.23876212983061,42.920794563695 -2.23312978462728,42.931965882624 -2.22083335576077,42.9338151576351 -2.21609442463346,42.9376477220641 -2.21620054621118,42.9430916330029 -2.21117105231025,42.9455692482228 -2.21025500428242,42.949898360798 -2.20375567074394,42.9494977058901 -2.19913688299766,42.9511763901744 -2.19026905677096,42.9477999708276 -2.1906428358792,42.9464068426854 -2.18669602659296,42.9445327980293 -2.18001720067755,42.9379653628164 -2.18096190406466,42.9351265147325 -2.16624529794001,42.9358496658862 -2.15575147613327,42.9424892229585 -2.15137289340242,42.943137800715 -2.14916639929925,42.9420970627724 -2.14167766310343,42.942239739879 -2.13691995089846,42.9401366340734 -2.13201495990266,42.939539506812 -2.13023493020089,42.9403893289581 -2.12745504504514,42.9393015611644 -2.12212089290547,42.9435178796085 -2.11744866887451,42.9435640266157 -2.10320027006588,42.9487824029112 -2.10465081478941,42.9540397591934 -2.09759174459068,42.9614707891536 -2.09532522056865,42.9722360818605 -2.07878541530294,42.9761141981328 -2.05291042270755,42.975911958001 -2.05167091739703,42.9796067857323 -2.04396757996807,42.9790143612443 -2.03880526116926,42.9815700271454 -2.03812808415863,42.9862340150711 -2.0342163109651,42.9879125368746 -2.03177966040137,43.0001049146752 -2.02786469459535,43.0005967751032 -2.02904116063077,43.0036531229698 -2.03195809725779,43.0044387886284 -2.03151948404056,43.0056073940191 -2.03879006257296,43.0151785248575 -2.03860928201189,43.0186005436892 -2.04112098142778,43.021963595888 -2.04045483393223,43.0247404969736 -2.04257243075485,43.0265851207786 -2.03421254522743,43.0300503087061 -2.0313583163971,43.0364105991767 -2.02083893392733,43.0471998830211 -2.01853971572048,43.0517309799376 -2.01913333683335,43.0589196661338 -2.02274365518037,43.0671725386459 -2.01690315774941,43.068406750784 -2.01226038318833,43.0730464189605 -2.00334888356753,43.0764167709747 -1.99802474584667,43.077306742934 -1.99033918517883,43.0804206257379 -1.98875596557598,43.078650684191 -1.98513800256588,43.0808079190781 -1.97862483587029,43.0817359250451 -1.97278665878767,43.0840237321773 -1.96964508225416,43.0865196188902 -1.97181695977781,43.0912672332626 -1.96608426377418,43.0953396899744 -1.94741692991205,43.0976063360699 -1.94863730110697,43.0998029026662 -1.94706571109382,43.0999494057216 -1.94402728001954,43.1034394430587 -1.93896101537907,43.1047798537193 -1.93771324197474,43.1064915389978 -1.9391491702103,43.1082934117293 -1.93780692727571,43.1094212061838 -1.93307547821634,43.1102016590918 -1.92446720941125,43.1150888117538 -1.92110257220948,43.1197609546746 -1.92143117324548,43.1226129162417 -1.91657796563419,43.1278713698229 -1.90199717130581,43.1357425727918 -1.90246603978181,43.1405482202188 -1.90564159958253,43.1448125219646 -1.92152995379074,43.1499042080441 -1.92017750419787,43.1581329386256 -1.91573114896866,43.1646040510336 -1.91698001921605,43.169328653673 -1.92096919305101,43.1726316328615 -1.92241805972165,43.1768127431759 -1.9222443246474,43.186333980725 -1.91493926068953,43.1934662382353 -1.91077616133739,43.2029066971885 -1.91319648502091,43.2106077780156 -1.91219726916743,43.2153959741051 -1.91305142057722,43.2213667611824 -1.91603041102751,43.2228340810964 -1.91442532912563,43.224990013657 -1.91027959600456,43.2271948906799 -1.90846116871429,43.2239134469226 -1.91082440266479,43.2226641228593 -1.91066791793897,43.2210817938234 -1.90344997888558,43.2188404946914 -1.90355889422383,43.2175302616477 -1.9082373525629,43.2167105777215 -1.90493408736307,43.2150289079176 -1.90376494529213,43.2115284881184 -1.8950233054134,43.209551160677 -1.89224539205972,43.2102564810759 -1.89052341508485,43.2072052926392 -1.8882602318974,43.2113006098076 -1.88951421535536,43.2141897231235 -1.88753512257982,43.2145768042248 -1.88368721511144,43.2113258500041 -1.88385540398717,43.2085158372235 -1.88206091859579,43.2068065897178 -1.88150705242597,43.2121481577278 -1.87520815728183,43.2105848742534 -1.8769831186888,43.2143178048398 -1.87539601027909,43.2166501351569 -1.87901052375859,43.2154970138116 -1.87981520225078,43.2182394608638 -1.87507267606566,43.218709527644 -1.87448773806839,43.2198051496284 -1.88041434979916,43.2206506462556 -1.87811928899556,43.2233547386935 -1.87985087884228,43.2254483580566 -1.87838770470411,43.2273479907873 -1.88076187923649,43.2289881140972 -1.87650388814595,43.2316921286274 -1.87390259256031,43.2300986609775 -1.87245907805214,43.2264928282173 -1.86760731762682,43.2302869250081 -1.86717620803713,43.2261834441117 -1.86502840895632,43.2245182999343 -1.86619160777333,43.2238747830777 -1.86465176242568,43.222050204129 -1.86669391064595,43.2180730236175 -1.86339891713325,43.2160064350848 -1.8637715032788,43.2126380050215 -1.86111509784706,43.2120386581457 -1.86074413675383,43.2175833888809 -1.85767903110555,43.2178460286644 -1.85926156798871,43.2167458379294 -1.85569806624101,43.2158863288705 -1.85415994386205,43.2165029486269 -1.85754553696273,43.2186489161989 -1.85584640863708,43.2195582641899 -1.85415071636747,43.2182699589364 -1.85297922340545,43.219149656826 -1.85340025659255,43.2209924797305 -1.85056796641813,43.2232246931926 -1.85280083865124,43.2261144276496 -1.84976662426892,43.2285134191312 -1.84868352463251,43.2275058798409 -1.84988409156872,43.2250125146817 -1.84713164275838,43.2236459821095 -1.84504848105555,43.2253560498051 -1.84103127798706,43.2240959107971 -1.83608969232154,43.2260041859968 -1.83431744023343,43.22454603712 -1.83502486082473,43.2286546950073 -1.83253021861952,43.2274198911061 -1.83032404880815,43.229135731932 -1.82573636163535,43.2282873499504 -1.82272833673676,43.2311422968072 -1.82248501097407,43.2358231317161 -1.81883255265701,43.2390174331736 -1.81689766597664,43.2383271950515 -1.80728982378857,43.2389511628158 -1.8056157782223,43.2399252856451 -1.80381806608252,43.2445408456968 -1.79785898474577,43.2451216282266 -1.79487433940075,43.2465252628803 -1.79572305779972,43.2541624277918 -1.79309479299261,43.2567903827859 -1.7951279149409,43.2647726217552 -1.79126190821613,43.2693272960381 -1.79431297229827,43.2762426047418 -1.78666910962934,43.2803852516403 -1.77936137677679,43.2876953759379 -1.77213763370835,43.2885280290258 -1.76498266565802,43.285764990919 -1.76143454216963,43.2878425879919 -1.76096171212321,43.2893490276597 -1.75821050388633,43.2902235512106 -1.75582371970227,43.290489121107 -1.75380219410599,43.2892037148656 -1.74903461390765,43.2931630357828 -1.74522977436891,43.2931421677292 -1.74286913026132,43.2946345986605 -1.74095291596246,43.2935938088458 -1.73780968563053,43.2961101599448 -1.73620357425933,43.2946798931685 -1.73383693389723,43.2953712742471 -1.72938104484788,43.2936386830574 -1.73017004055185,43.2957471177609 -1.72913939623986,43.2961232858573 -1.72594343929229,43.2972432159946 -1.72350737083683,43.2998785090299 -1.71908944099816,43.3005567701176 -1.71363427231502,43.2998811156136 -1.7061666402402,43.3076671218032 -1.69449557625361,43.3122201410013 -1.6855433030003,43.3092797291061 -1.67419909641979,43.3118299570941 -1.66829828340564,43.3146327061865 -1.66426984241292,43.313744484085</coordinates></LinearRing></outerBoundaryIs></Polygon></MultiGeometry>
  </Placemark>
</Folder>
</Document></kml>
